{"type":"FeatureCollection","metadata":{"source":"U.S. Census Bureau 2025 Cartographic Boundary Files, states, 1:20,000,000","url":"https://www2.census.gov/geo/tiger/GENZ2025/shp/cb_2025_us_state_20m.zip","source_sha256":"9340b6d995e971b2b4230518f4fa85e6cd9e7fe6811afabc90a6a8b1191530f6","selection":["AL","AR","FL","GA","KY","LA","MS","NC","OK","SC","TN","TX","VA","WV"],"clip":[-100,24,-74,38]},"features":[{"type":"Feature","properties":{"state":"TX","name":"Texas","statefp":"48"},"geometry":{"type":"Polygon","coordinates":[[[-99.997629328163,34.5611366245601],[-99.929334,34.576714],[-99.8420638841464,34.5069327688814],[-99.818186,34.48784],[-99.764882,34.435266],[-99.696462,34.381036],[-99.600026,34.374688],[-99.58448,34.407673],[-99.4750221370384,34.3968709897905],[-99.470969,34.396471],[-99.420432,34.380464],[-99.394956,34.442099],[-99.350407,34.437083],[-99.27534,34.386599],[-99.2216079008455,34.3253735743726],[-99.2116,34.31397],[-99.189511,34.214312],[-99.131553,34.209352],[-99.0588,34.201256],[-99.002916,34.208782],[-98.9523248875282,34.2046698986035],[-98.94022,34.203686],[-98.872229,34.160446],[-98.80681,34.155901],[-98.737232,34.130992],[-98.690072,34.133155],[-98.648073,34.164441],[-98.6102002179226,34.1561768671247],[-98.577136,34.148962],[-98.5282,34.094961],[-98.475066,34.064269],[-98.423533,34.0819494760059],[-98.414426,34.085074],[-98.398441,34.128456],[-98.364023,34.157109],[-98.31875,34.146421],[-98.225282,34.127245],[-98.16912,34.114171],[-98.1384860257464,34.1412060197111],[-98.123377,34.15454],[-98.099328,34.104295],[-98.099096,34.048639],[-98.082839,34.002412],[-98.005667,33.995964],[-97.947572,33.991053],[-97.953695,33.924373],[-97.9519059508552,33.8912258148573],[-97.951215,33.878424],[-97.865765,33.849393],[-97.803473,33.88019],[-97.759834,33.92521],[-97.671772,33.99137],[-97.609091,33.968093],[-97.596155,33.922106],[-97.5612431502211,33.899061506733],[-97.55827,33.897099],[-97.486505,33.916994],[-97.4841434385876,33.9138891088909],[-97.451469,33.87093],[-97.444193,33.823773],[-97.372941,33.819454],[-97.318243,33.865121],[-97.24618,33.900344],[-97.206141,33.91428],[-97.166629,33.847311],[-97.205652,33.809824],[-97.149394,33.721967],[-97.091072,33.735115],[-97.087852,33.774099],[-97.07859,33.812756],[-97.055838,33.855741],[-96.985567,33.886522],[-96.988745,33.918468],[-96.952313,33.944582],[-96.9446168883705,33.945013250454],[-96.934343303133,33.9455889292528],[-96.905253,33.947219],[-96.897194,33.902954],[-96.850593,33.847211],[-96.794276,33.868886],[-96.776766,33.841976],[-96.712422,33.831633],[-96.682103,33.876645],[-96.659896,33.916666],[-96.5946743073771,33.8830186573983],[-96.590112,33.880665],[-96.592926,33.830916],[-96.572937,33.819098],[-96.523863,33.818114],[-96.502286,33.77346],[-96.436455,33.78005],[-96.403507,33.746289],[-96.3796608259521,33.715530908566],[-96.363135,33.694215],[-96.307389,33.735005],[-96.277269,33.769735],[-96.229023,33.748021],[-96.173025,33.80056],[-96.15163,33.831946],[-96.063924,33.841523],[-95.935325,33.875099],[-95.887491,33.863856],[-95.8448785340707,33.860421904719],[-95.820596,33.858465],[-95.7896393177523,33.8724373846723],[-95.737508,33.895967],[-95.669978,33.905844],[-95.603657,33.927195],[-95.556915,33.92702],[-95.525322,33.885487],[-95.44737,33.86885],[-95.352338,33.867789],[-95.3104497954491,33.8738430381855],[-95.283445,33.877746],[-95.253623,33.92971],[-95.226393,33.961954],[-95.1559076171075,33.9384823885698],[-95.149462,33.936336],[-95.095002,33.904816],[-95.046568,33.862565],[-94.98165,33.852284],[-94.93956,33.810503],[-94.902276,33.776289],[-94.841634,33.739431],[-94.766146,33.748031],[-94.7319329019959,33.7208305162803],[-94.714865,33.707261],[-94.630586,33.673401],[-94.572872,33.669886],[-94.528928,33.62184],[-94.485875,33.637867],[-94.419057,33.577217],[-94.388052,33.565511],[-94.354165,33.556452],[-94.338422,33.567082],[-94.303742,33.564486],[-94.238868,33.576722],[-94.213605,33.570622],[-94.183395,33.592212],[-94.143024,33.577725],[-94.07267,33.572234],[-94.043428,33.551425],[-94.042988,33.435824],[-94.043067,33.330498],[-94.0429458450603,33.2712410493864],[-94.042719,33.160291],[-94.042964,33.019219],[-94.0430026215633,32.881088978924],[-94.043026,32.797476],[-94.0430515276176,32.6930299766656],[-94.043083,32.564261],[-94.0427882328053,32.3922831932812],[-94.042739,32.363559],[-94.0426959391654,32.1960649748209],[-94.042681,32.137956],[-94.041833,31.992402],[-94.029428406596,31.979686964168],[-93.977461,31.926419],[-93.909557,31.893144],[-93.8782518953866,31.8442765572456],[-93.85339,31.805467],[-93.803419,31.700686],[-93.816838,31.622509],[-93.834924,31.586211],[-93.787687,31.527344],[-93.725925,31.504092],[-93.749476,31.46869],[-93.697603,31.428409],[-93.668146,31.375103],[-93.67544,31.30104],[-93.613942,31.259375],[-93.602443,31.182541],[-93.6006030873629,31.1826249552688],[-93.5524973075023,31.1848200234468],[-93.535097,31.185614],[-93.540278,31.128868],[-93.531219,31.051678],[-93.539526,31.008498],[-93.549841,30.967118],[-93.530936,30.924534],[-93.5545758543455,30.8774695018611],[-93.558617,30.869424],[-93.569303,30.802969],[-93.617688,30.738479],[-93.629904,30.67994],[-93.685121,30.625201],[-93.684329,30.592586],[-93.729195,30.544842],[-93.710117,30.5064],[-93.702665,30.429947],[-93.7381729998702,30.4025470540047],[-93.745333,30.397022],[-93.760328,30.329924],[-93.70719,30.275513],[-93.7110621713009,30.2439707156403],[-93.713359,30.225261],[-93.703764,30.173936],[-93.702436,30.112721],[-93.70394,30.054291],[-93.7061835663174,30.0523143321691],[-93.741078,30.021571],[-93.807815,29.954549],[-93.830374,29.894359],[-93.8523098709223,29.8720910043919],[-93.872446,29.85165],[-93.929208,29.802952],[-93.890821,29.761673],[-93.863204,29.724059],[-93.837971,29.690619],[-93.861291,29.679007],[-93.961867,29.682213],[-94.056506,29.671163],[-94.161549,29.636588],[-94.3541225449137,29.5621028201748],[-94.370816,29.555645988295],[-94.500807,29.505367],[-94.594853,29.467903],[-94.670389,29.43078],[-94.731047,29.369141],[-94.72253,29.331446],[-94.803695,29.279237],[-95.026219,29.148064],[-95.1150505055983,29.0755520224787],[-95.125134,29.067321],[-95.191391,29.02309],[-95.297147,28.934073],[-95.38239,28.866348],[-95.439594,28.859022],[-95.507037396917,28.8247355121921],[-95.588801,28.783169],[-95.684089,28.734041],[-95.812504,28.664942],[-96.000682,28.588238],[-96.194412,28.502224],[-96.328817,28.423659],[-96.3785331592868,28.3898650304879],[-96.390376,28.381815],[-96.442849,28.317666],[-96.63201,28.222821],[-96.719627,28.164594],[-96.792158,28.110497],[-96.8520706227301,28.0598208616046],[-96.886459,28.030734],[-97.003325,27.908307],[-97.0436840836865,27.8365323534718],[-97.044846,27.834466],[-97.090735,27.785888],[-97.140854,27.716688],[-97.212679,27.59642],[-97.2229914075318,27.5766073164796],[-97.257325,27.510644],[-97.296057,27.427175],[-97.336122,27.317818],[-97.3468508769557,27.2779588322095],[-97.358469,27.234796],[-97.378697,27.060044],[-97.366872,26.885581],[-97.32275,26.701746],[-97.2875411166858,26.6003398814733],[-97.253801,26.503164],[-97.2272884780129,26.4111776799575],[-97.196935,26.305865],[-97.158798,26.08266],[-97.151922,26.017653],[-97.145567,25.971132],[-97.156608,25.949022],[-97.206945,25.960899],[-97.277163,25.935438],[-97.338346,25.923125],[-97.365976,25.902447],[-97.360082,25.868874],[-97.372864,25.840117],[-97.422636,25.840378],[-97.454727,25.879337],[-97.496861,25.880058],[-97.542957,25.920035],[-97.582565,25.937857],[-97.644011,26.006614],[-97.697069,26.023455],[-97.758838,26.032131],[-97.795291,26.055218],[-97.8622582970613,26.0577459501697],[-97.871187,26.058083],[-97.944345,26.059621],[-98.010971,26.063863],[-98.039239,26.041275],[-98.080115736643,26.0553958966484],[-98.091038,26.059169],[-98.149463,26.055813],[-98.197046,26.056153],[-98.248806,26.073101],[-98.302979,26.11005],[-98.386694,26.157872],[-98.442536,26.199151],[-98.503492,26.214798],[-98.576188,26.235221],[-98.5931641791091,26.2428750129916],[-98.613465,26.252028],[-98.654221,26.23596],[-98.698856,26.265619],[-98.779912,26.326542],[-98.807348,26.369421],[-98.890965,26.357569],[-98.958325,26.394056],[-99.032316,26.412082],[-99.082002,26.39651],[-99.110855,26.426278],[-99.091635,26.476977],[-99.105031,26.500335],[-99.171404,26.549848],[-99.1768160923811,26.5696605553736],[-99.200522,26.656443],[-99.208907,26.724761],[-99.242444,26.788262],[-99.268613,26.843213],[-99.3289,26.879761],[-99.361144,26.928921],[-99.387367,26.982399],[-99.44697,27.026026],[-99.442123,27.106839],[-99.429984,27.159149],[-99.445238,27.223341],[-99.4608257991343,27.2622401970428],[-99.463309,27.268437],[-99.487937,27.294941],[-99.529654,27.306051],[-99.487521,27.412396],[-99.495104,27.451518],[-99.497519,27.500496],[-99.52832,27.498896],[-99.530138,27.580207],[-99.556812,27.614336],[-99.624515,27.634515],[-99.704601,27.654954],[-99.758534,27.717071],[-99.801651,27.741771],[-99.844737,27.778809],[-99.87784,27.824376],[-99.904385,27.875284],[-99.917461,27.917973],[-99.932161,27.96771],[-99.984923,27.990729],[-100.0,28.019087955139046],[-100.0,34.56059590169888],[-99.997629328163,34.5611366245601]]]}},{"type":"Feature","properties":{"state":"GA","name":"Georgia","statefp":"13"},"geometry":{"type":"Polygon","coordinates":[[[-85.4743388431343,34.9836733267911],[-85.384967,34.982987],[-85.3639190289311,34.9833765631405],[-85.277556,34.984975],[-85.2650550217158,34.9850776447417],[-85.045183,34.986883],[-84.9798540252315,34.9872056139756],[-84.9769738065923,34.9872198373549],[-84.861314,34.987791],[-84.8104774668864,34.9878779552292],[-84.7758376712973,34.9879372061493],[-84.727434,34.98802],[-84.621483,34.988329],[-84.509052,34.988033],[-84.321869,34.988408],[-84.1294469626359,34.9879469539553],[-84.0053367334383,34.9876495840123],[-83.936646,34.987485],[-83.936427344252,34.9874843833797],[-83.619985,34.986592],[-83.5491807535047,34.988803195914],[-83.4828732042907,34.9908739612868],[-83.322768,34.995874],[-83.108606,35.000659],[-83.124378,34.95524],[-83.140621,34.924915],[-83.201183,34.884653],[-83.252582,34.853483],[-83.284812,34.823043],[-83.323866,34.789712],[-83.320062,34.759616],[-83.353238,34.728648],[-83.3496085109133,34.7170105826273],[-83.3400391067846,34.6863277104121],[-83.33869,34.682002],[-83.27796,34.644853],[-83.221402,34.609947],[-83.154577,34.588198],[-83.1028738260357,34.5374309097654],[-83.096858,34.531524],[-83.0505729641024,34.4950536521691],[-83.048289,34.493254],[-82.99509,34.472483],[-82.9913881531823,34.4729806272358],[-82.925766,34.481802],[-82.873831,34.471508],[-82.841997,34.399766],[-82.82342,34.358872],[-82.780308,34.296701],[-82.7746287310121,34.2883668182547],[-82.744982,34.244861],[-82.7359800166139,34.215462648637],[-82.715373,34.148165],[-82.642797,34.081312],[-82.5950257926073,34.0135178092096],[-82.591855,34.009018],[-82.5629967985809,33.9565549105269],[-82.556835,33.945353],[-82.51295,33.936969],[-82.43115,33.867051],[-82.32448,33.820033],[-82.239098,33.730872],[-82.2159383647475,33.6877549753187],[-82.199747,33.657611],[-82.161908,33.610643],[-82.1146464844333,33.5979030721672],[-82.10624,33.595637],[-82.028238,33.544934],[-82.016581923059,33.5290907977257],[-81.990938,33.494235],[-81.926336,33.462937],[-81.920121,33.410753],[-81.932737,33.343541],[-81.846136,33.303843],[-81.8465005323579,33.2472520854299],[-81.846536,33.241746],[-81.763535,33.203648],[-81.7625059827958,33.1972658882973],[-81.755135,33.15155],[-81.658433,33.103152],[-81.6159557107891,33.089338539364],[-81.601655,33.084688],[-81.5439662243139,33.0443999541444],[-81.50203,33.015113],[-81.499566,32.943722],[-81.464069,32.897814],[-81.42062,32.831223],[-81.4131167951736,32.7442613279615],[-81.41267,32.739083],[-81.393818,32.653491],[-81.397106,32.605587],[-81.3869019026942,32.5989648538998],[-81.328753,32.561228],[-81.2842383817656,32.547110946285],[-81.274927,32.544158],[-81.194829,32.465086],[-81.194931,32.411489],[-81.1734737944861,32.3849027808867],[-81.133032,32.334794],[-81.128034,32.276297],[-81.153531,32.237687],[-81.1475951704554,32.2271694465971],[-81.119361,32.177142],[-81.113334,32.113205],[-81.038265,32.084469],[-81.006745,32.101152],[-80.943226,32.057824],[-80.885517,32.0346],[-80.84313,32.024226],[-80.848441,31.988279],[-80.911207,31.943769],[-80.941359,31.912984],[-81.000317,31.856744],[-81.036873,31.812721],[-81.077057,31.761256],[-81.130634,31.722692],[-81.1352985902005,31.7105645979661],[-81.139394,31.699917],[-81.133493,31.623348],[-81.173079,31.555908],[-81.1748326365906,31.5395964494948],[-81.177254,31.517074],[-81.213493,31.462818],[-81.258616,31.404425],[-81.279338,31.351127],[-81.260958,31.30391],[-81.2643779480884,31.2945990647455],[-81.282842,31.24433],[-81.304957,31.206173],[-81.368241,31.136534],[-81.402096,31.125383],[-81.401267,31.072781],[-81.420474,31.016703],[-81.4125180355795,30.9908345035084],[-81.408484,30.977718],[-81.405153,30.908203],[-81.44013,30.821369],[-81.460061,30.769912],[-81.444124,30.709714],[-81.507218,30.722936],[-81.528281,30.723359],[-81.56171,30.715597],[-81.633273,30.729603],[-81.668283,30.744644],[-81.732238,30.749635],[-81.763384,30.773821],[-81.808543,30.790016],[-81.868624,30.792756],[-81.902354,30.82082],[-81.9059784394064,30.821407341502],[-81.943187,30.827437],[-81.994992,30.786074],[-82.032667,30.750674],[-82.041834,30.692374],[-82.049529,30.655544],[-82.015728,30.601698],[-82.018381,30.531176],[-82.028232,30.447385],[-82.042011,30.403253],[-82.040766,30.370144],[-82.0509829816809,30.3683677759449],[-82.094709,30.360766],[-82.143306,30.363378],[-82.180043,30.36861],[-82.210318,30.424577],[-82.200965,30.474427],[-82.229427,30.520814],[-82.218607,30.564395],[-82.4189841121785,30.5809166697315],[-82.459581,30.584264],[-82.4597924354137,30.5842765283062],[-82.5840051864195,30.5916365790876],[-82.6895297984728,30.5978892906418],[-82.877311,30.609016],[-83.131431,30.623575],[-83.1366188582036,30.6238859448931],[-83.3093471215958,30.6342387666716],[-83.3577163136281,30.6371378731342],[-83.499951,30.645663],[-83.6117040588264,30.6515600937086],[-83.743729,30.6585269137505],[-83.820973,30.662603],[-84.007454,30.6720699684692],[-84.0837530823,30.675943397968],[-84.124993,30.678037],[-84.2855145090395,30.684809171948],[-84.3807541835525,30.6888271970459],[-84.474519,30.692783],[-84.812997,30.70965],[-84.8634638443825,30.7114970146544],[-84.864693,30.711542],[-84.91815,30.772082],[-84.934283,30.834033],[-84.935698,30.878703],[-84.983757,30.936984],[-85.006062,30.977039],[-85.002499,31.000682],[-85.011392,31.053546],[-85.0211075623628,31.0754638723064],[-85.035615,31.108192],[-85.107516,31.186451],[-85.108192,31.258591],[-85.089774,31.295026],[-85.0888299635305,31.3086477554966],[-85.087929,31.321648],[-85.092487,31.362881],[-85.066005,31.431363],[-85.071621,31.468384],[-85.0516814295062,31.5195403291417],[-85.041881,31.544684],[-85.05796,31.57084],[-85.058169,31.620227],[-85.12553,31.694965],[-85.11893,31.732664],[-85.1254405773425,31.7629687034183],[-85.1291593155832,31.7802782680766],[-85.141831,31.839261],[-85.114031,31.89336],[-85.067829,31.967358],[-85.0635905429847,31.991857],[-85.0514111279128,32.062256083622],[-85.047063,32.087389],[-85.058749,32.136018],[-84.997765,32.185445],[-84.930127,32.219051],[-84.9199421479259,32.2308482009333],[-84.891841,32.263398],[-84.955704,32.30591],[-85.008096,32.336677],[-84.983466,32.363186],[-84.9811502941337,32.3790400766818],[-84.971831,32.442843],[-84.9997867563101,32.5070669687837],[-85.0011308391237,32.5101547883978],[-85.0071,32.523868],[-85.069848,32.583146],[-85.0760723726048,32.6080674751571],[-85.088533,32.657958],[-85.11425,32.730447],[-85.1245332227506,32.7516296067514],[-85.160963,32.826672],[-85.1844,32.861317],[-85.1861174017892,32.8701382699716],[-85.232441,33.108075],[-85.2365953712528,33.1295440282507],[-85.2943468643453,33.4279931463646],[-85.3049438332249,33.4827563368455],[-85.314048,33.529805],[-85.3381162999059,33.6531143916014],[-85.360532,33.767957],[-85.3866705737728,33.9017014940033],[-85.398871,33.964128],[-85.4210731752288,34.0808126526072],[-85.429499,34.125095],[-85.4631408247758,34.2861909885055],[-85.502471,34.474526],[-85.5130442292733,34.5239464713237],[-85.526894818161,34.5886856927335],[-85.5344052578154,34.6237903384358],[-85.561424,34.750079],[-85.5828123337853,34.8604354744776],[-85.595165,34.924171],[-85.605165,34.984678],[-85.4743388431343,34.9836733267911]]]}},{"type":"Feature","properties":{"state":"VA","name":"Virginia","statefp":"51"},"geometry":{"type":"MultiPolygon","coordinates":[[[[-75.987122,37.368548],[-75.976491,37.444878],[-75.9455743189307,37.5490406581517],[-75.941182,37.563839],[-75.898665,37.635425],[-75.859262,37.703111],[-75.812155,37.749502],[-75.818125,37.791698],[-75.73588,37.816561],[-75.708888,37.84302],[-75.730946,37.898328],[-75.724905,37.914983],[-75.669711,37.950796],[-75.624341,37.994211],[-75.55731172019516,38.0],[-75.26209445354439,38.0],[-75.338623,37.894986],[-75.380638,37.851702],[-75.439001,37.869335],[-75.48927,37.832457],[-75.551898,37.748122],[-75.591953,37.663178],[-75.614527,37.609296],[-75.607824,37.560706],[-75.672877,37.483696],[-75.6654179108751,37.4672935154925],[-75.658379,37.451815],[-75.720739,37.373129],[-75.735829,37.335426],[-75.778817,37.297176],[-75.795164,37.247095],[-75.817387,37.193437],[-75.897298,37.118037],[-75.942399,37.089607],[-75.979608,37.100448],[-75.998647,37.188739],[-76.023475,37.289067],[-75.987122,37.368548]]],[[[-83.527112,36.665985],[-83.4609546474638,36.6661310362733],[-83.436508,36.666185],[-83.386099,36.686589],[-83.236399,36.726887],[-83.136395,36.743088],[-83.114693,36.796088],[-83.07559,36.850589],[-83.012587,36.847289],[-82.895445,36.882145],[-82.8837542129764,36.8971301366542],[-82.865192,36.920923],[-82.869183,36.974182],[-82.815748,37.007196],[-82.750715,37.024107],[-82.722254,37.057948],[-82.726294,37.111852],[-82.565275702797,37.1959011068831],[-82.558178,37.199606],[-82.5536395449037,37.2014503744627],[-82.449164,37.243908],[-82.355343,37.26522],[-82.3143704529296,37.2963062518554],[-82.309415,37.300066],[-82.201745,37.375108],[-81.968297,37.537798],[-81.932279,37.511961],[-81.984891,37.454315],[-81.93695,37.41992],[-81.933601,37.389217],[-81.896001,37.331967],[-81.849949,37.285227],[-81.774747,37.274847],[-81.744003,37.242528],[-81.7390550304855,37.2394971038728],[-81.678603,37.202467],[-81.560625,37.206663],[-81.53307,37.223414],[-81.483559,37.250604],[-81.427946,37.271015],[-81.362156,37.337687],[-81.225104,37.234874],[-81.112596,37.278497],[-80.996013,37.299545],[-80.9808452568928,37.3008528161905],[-80.919259,37.306163],[-80.835479,37.334824],[-80.883248,37.383933],[-80.865148,37.419927],[-80.8581481168198,37.4210069067215],[-80.8573585701898,37.421128713999],[-80.836446,37.424355],[-80.770082,37.372363],[-80.664971,37.414215],[-80.544836,37.474695],[-80.4695688905042,37.4290254659927],[-80.46482,37.426144],[-80.39988,37.462314],[-80.291644,37.536505],[-80.28244,37.585481],[-80.223386,37.623185],[-80.2243032443768,37.6239913711709],[-80.292258,37.683732],[-80.290033810255,37.686136458971],[-80.258143,37.720612],[-80.218616,37.783291],[-80.199633,37.827507],[-80.131931,37.8895],[-80.0558115945897,37.9518782200979],[-80.036236,37.96792],[-80.00894285024737,38.0],[-76.46434996988852,38.0],[-76.427487,37.977038],[-76.357581,37.951678],[-76.29202,37.92312],[-76.236725,37.889174],[-76.251358,37.833072],[-76.310307,37.794849],[-76.312858,37.720338],[-76.3252991496906,37.6825738854367],[-76.32912,37.670976],[-76.279447,37.618225],[-76.2888778367019,37.587359934104],[-76.29796,37.557636],[-76.2894927971781,37.5360752880088],[-76.273488,37.495321],[-76.250454,37.421886],[-76.24846,37.375135],[-76.275552,37.309964],[-76.366751,37.374495],[-76.393958,37.39594],[-76.4029458753529,37.3926000017912],[-76.437525,37.37975],[-76.38777,37.30767],[-76.36229,37.270226],[-76.3769368097175,37.2494917623633],[-76.394132,37.22515],[-76.3471899289676,37.1896444936553],[-76.3431,37.186551],[-76.311088,37.138495],[-76.293126918301,37.1141637008803],[-76.271262,37.084544],[-76.304272,37.001378],[-76.2809720508166,36.977743727668],[-76.267962,36.964547],[-76.189959,36.931447],[-76.1769475851987,36.928538680155],[-76.087955,36.908647],[-76.043054,36.927547],[-75.996252,36.922047],[-75.961589,36.799995],[-75.921748,36.692051],[-75.890946,36.630753],[-75.867044,36.550754],[-76.02675,36.550553],[-76.1223499470101,36.5505523325541],[-76.313215,36.550551],[-76.3133029682603,36.550551089807],[-76.4914825754723,36.5507329938364],[-76.5419658657183,36.5507845323601],[-76.738329,36.550985],[-76.9157318023497,36.5460897693389],[-76.9160376328562,36.5460813302903],[-76.917318,36.546046],[-77.0716192313025,36.5461127292585],[-77.1643226037182,36.5461528198479],[-77.190175,36.546164],[-77.2989182850567,36.546038840401],[-77.749706,36.54552],[-77.7671039699267,36.5454424093355],[-77.8997741360467,36.5448507330424],[-78.0462083043603,36.5441976726866],[-78.132911,36.543811],[-78.323718509559,36.5424213915586],[-78.4572778962559,36.5414487083995],[-78.509965,36.541065],[-78.7341228011172,36.5416087348408],[-78.7962739551405,36.5417594935816],[-78.942009,36.542113],[-79.1383358988714,36.5416382700559],[-79.2184554959223,36.5414445361761],[-79.3431159193695,36.5411430999685],[-79.4700566739243,36.5408361497866],[-79.510647,36.540738],[-79.5136476625086,36.5407482050707],[-79.714850811052,36.5414324847413],[-80.027269,36.542495],[-80.0273389151412,36.5424953856142],[-80.0534550433501,36.5426394280866],[-80.295243,36.543973],[-80.431605,36.550219],[-80.4403427430004,36.5506059569159],[-80.6121887881246,36.5582162763804],[-80.704831,36.562319],[-80.840213077246,36.5619284516373],[-80.901661118921,36.561751187168],[-80.901726,36.561751],[-81.061866,36.56702],[-81.176712,36.571926],[-81.3532212246022,36.5762382311564],[-81.499831,36.57982],[-81.677535,36.588117],[-81.6469,36.611918],[-81.8267341480526,36.6147191041614],[-81.922644,36.616213],[-81.934144,36.594213],[-82.1455732705145,36.5945603308341],[-82.173982,36.594607],[-82.2433850052002,36.5948761876654],[-82.2941364201291,36.5950730329585],[-82.487238,36.595822],[-82.609181949399,36.5950896860685],[-82.830433,36.593761],[-82.9844584955724,36.59528996905],[-83.2763,36.598187],[-83.4720935738096,36.5994757320593],[-83.675413,36.600814],[-83.614513,36.633983],[-83.527112,36.665985]]]]}},{"type":"Feature","properties":{"state":"FL","name":"Florida","statefp":"12"},"geometry":{"type":"MultiPolygon","coordinates":[[[[-81.751266,24.653517],[-81.672338,24.699514],[-81.584599,24.736696],[-81.571151,24.756354],[-81.44351,24.813364],[-81.305054,24.755185],[-81.243232,24.673998],[-81.342192,24.637774],[-81.401889,24.623544],[-81.443915,24.642677],[-81.517404,24.621239],[-81.595334,24.593107],[-81.685243,24.558676],[-81.812536,24.545469],[-81.811693,24.568745],[-81.751266,24.653517]]],[[[-81.983908,24.580682],[-81.868711,24.58412],[-81.918855,24.498131],[-82.028091,24.498716],[-82.01491,24.543071],[-81.983908,24.580682]]],[[[-82.144099,24.622481],[-82.086643,24.590071],[-82.100757,24.533288],[-82.179454,24.52947],[-82.188031,24.574699],[-82.144099,24.622481]]],[[[-87.598937,30.997422],[-87.5988289462621,30.9974221769053],[-87.519533,30.997552],[-87.425791,30.998058],[-87.312206,30.998404],[-87.163645308459,30.999021835748],[-87.162644,30.999026],[-86.927851,30.997678],[-86.831979,30.997354],[-86.7856919760059,30.9969829935168],[-86.6882409642461,30.9962018900015],[-86.563494,30.995202],[-86.3886446620004,30.9945282152752],[-86.364974,30.994437],[-86.1872480489813,30.9940667234622],[-86.1327206705317,30.9939531204189],[-86.0350381049506,30.9937496073023],[-85.893632,30.993455],[-85.749715,30.995282],[-85.4980015850895,30.9978650493614],[-85.4882982889391,30.9979646232873],[-85.333319,30.999555],[-85.145959,31.000693],[-85.031285,31.000647],[-85.002499,31.000682],[-85.006062,30.977039],[-84.983757,30.936984],[-84.935698,30.878703],[-84.934283,30.834033],[-84.91815,30.772082],[-84.864693,30.711542],[-84.8634638443825,30.7114970146544],[-84.812997,30.70965],[-84.474519,30.692783],[-84.3807541835525,30.6888271970459],[-84.2855145090395,30.684809171948],[-84.124993,30.678037],[-84.0837530823,30.675943397968],[-84.007454,30.6720699684692],[-83.820973,30.662603],[-83.743729,30.6585269137505],[-83.6117040588264,30.6515600937086],[-83.499951,30.645663],[-83.3577163136281,30.6371378731342],[-83.3093471215958,30.6342387666716],[-83.1366188582036,30.6238859448931],[-83.131431,30.623575],[-82.877311,30.609016],[-82.6895297984728,30.5978892906418],[-82.5840051864195,30.5916365790876],[-82.4597924354137,30.5842765283062],[-82.459581,30.584264],[-82.4189841121785,30.5809166697315],[-82.218607,30.564395],[-82.229427,30.520814],[-82.200965,30.474427],[-82.210318,30.424577],[-82.180043,30.36861],[-82.143306,30.363378],[-82.094709,30.360766],[-82.0509829816809,30.3683677759449],[-82.040766,30.370144],[-82.042011,30.403253],[-82.028232,30.447385],[-82.018381,30.531176],[-82.015728,30.601698],[-82.049529,30.655544],[-82.041834,30.692374],[-82.032667,30.750674],[-81.994992,30.786074],[-81.943187,30.827437],[-81.9059784394064,30.821407341502],[-81.902354,30.82082],[-81.868624,30.792756],[-81.808543,30.790016],[-81.763384,30.773821],[-81.732238,30.749635],[-81.668283,30.744644],[-81.633273,30.729603],[-81.56171,30.715597],[-81.528281,30.723359],[-81.507218,30.722936],[-81.444124,30.709714],[-81.42742,30.69802],[-81.443099,30.600938],[-81.434064,30.522569],[-81.4289547376433,30.5061830741652],[-81.42601,30.496739],[-81.410809,30.482039],[-81.4025013526944,30.4001283202505],[-81.396407,30.34004],[-81.3743761280233,30.252931],[-81.288955,29.91518],[-81.270442,29.883106],[-81.2619334605748,29.8221234866761],[-81.256711,29.784693],[-81.2104095965538,29.6706408057043],[-81.163581,29.55529],[-81.1029673517454,29.426996650452],[-81.046678,29.307856],[-80.9954231154303,29.2060516842917],[-80.966176,29.14796],[-80.907275,29.064262],[-80.787021,28.875266],[-80.7275056700738,28.7911928713227],[-80.647288,28.677875],[-80.583884,28.597705],[-80.525094,28.459454],[-80.587813,28.410856],[-80.606874,28.336484],[-80.604214,28.257733],[-80.589975,28.17799],[-80.547675,28.048795],[-80.4476769492176,27.860513513361],[-80.383695,27.740045],[-80.330956,27.597541],[-80.3166866116204,27.5573400246076],[-80.253665,27.37979],[-80.1980213526587,27.2630088036725],[-80.153375,27.169308],[-80.138605,27.111517],[-80.116772,27.072397],[-80.0830776297553,26.970534],[-80.046263,26.859238],[-80.0323625083668,26.7730339188175],[-80.03212,26.77153],[-80.032231724777,26.7686015718408],[-80.035763,26.676043],[-80.035363,26.612346],[-80.038863,26.569347],[-80.050363,26.509549],[-80.061607857332,26.4264024766503],[-80.0758744394432,26.3209127698802],[-80.085565,26.249259],[-80.1086585055892,26.0932938862554],[-80.109566,26.087165],[-80.1150067836063,25.9753261627924],[-80.117904,25.915772],[-80.109953,25.81826],[-80.123806,25.762767],[-80.129126084386,25.7461616656992],[-80.154972,25.66549],[-80.176916,25.685062],[-80.229107,25.732509],[-80.265879,25.658373],[-80.301464,25.613299],[-80.313918,25.539164],[-80.3159759814327,25.5326208272661],[-80.337049,25.465621],[-80.31036,25.389707],[-80.234849,25.42196],[-80.176024,25.521154],[-80.163156,25.452184],[-80.2293537849126,25.3421186263507],[-80.238555,25.32682],[-80.358183,25.153228],[-80.496761,24.999324],[-80.651189,24.866131],[-80.966245,24.707852],[-81.103373,24.669463],[-81.148718,24.710477],[-81.038908,24.772596],[-80.847471,24.851753],[-80.610869,25.006995],[-80.516571,25.095457],[-80.500513,25.156674],[-80.495394,25.199808],[-80.542391,25.206379],[-80.650532,25.189097],[-80.710607,25.15253],[-80.747746,25.147441],[-80.812133,25.186039],[-80.8581700400306,25.1775203265261],[-80.87546,25.174321],[-80.915924,25.141301],[-81.009598,25.125403],[-81.079859,25.118797],[-81.142278,25.183],[-81.170907,25.245857],[-81.148103,25.332793],[-81.146765,25.407577],[-81.208201,25.504937],[-81.240519,25.599041],[-81.289901,25.673554],[-81.355986,25.703526],[-81.38381,25.776751],[-81.4423076374621,25.8033302508746],[-81.472239,25.81693],[-81.614735,25.893977],[-81.6402369580568,25.8775375792851],[-81.672633,25.856654],[-81.727086,25.907207],[-81.7419275304192,25.9527263358319],[-81.757463,26.000374],[-81.808833,26.152246],[-81.844555,26.327712],[-81.8464852479618,26.3303720485028],[-81.923611,26.436658],[-81.956611,26.452358],[-82.013913,26.452058],[-82.075015,26.422059],[-82.126671,26.436279],[-82.180717,26.476257],[-82.245395,26.601094],[-82.264351,26.698496],[-82.264682,26.756836],[-82.2805412776288,26.7893085864431],[-82.314277,26.858384],[-82.3692013921691,26.9460810256335],[-82.452673,27.079359],[-82.539719,27.254326],[-82.610581,27.348817],[-82.6481706168595,27.38972],[-82.691821,27.437218],[-82.743017,27.531086],[-82.719852,27.528933],[-82.65072,27.523115],[-82.584629,27.596021],[-82.5528872070636,27.6454475963655],[-82.5447404124373,27.6581333425825],[-82.514265,27.705588],[-82.477638,27.723004],[-82.43198,27.768092],[-82.448786,27.810036],[-82.489849,27.822607],[-82.553946,27.848462],[-82.5663805212513,27.8363382177134],[-82.586519,27.816703],[-82.622723,27.779868],[-82.62502,27.732706],[-82.652521,27.700307],[-82.6775344377073,27.6645722242507],[-82.705017,27.62531],[-82.733076,27.612972],[-82.738467,27.678504],[-82.746223,27.731306],[-82.790224,27.791603],[-82.846526,27.854301],[-82.840882,27.937162],[-82.828163,28.02013],[-82.850881,28.102451],[-82.8593849560329,28.1721750746045],[-82.859624,28.174135],[-82.764103,28.244345],[-82.73146,28.325075],[-82.697433,28.420166],[-82.6908136882946,28.4333048573934],[-82.665055,28.484434],[-82.656694,28.544814],[-82.668149,28.622411],[-82.6687096341287,28.6940772618211],[-82.668722,28.695658],[-82.712373,28.720921],[-82.713121,28.800283],[-82.730245,28.850155],[-82.688864,28.905609],[-82.723861,28.953506],[-82.7555738086957,29.0009301182604],[-82.759378,29.006619],[-82.759704,29.054192],[-82.823659,29.098902],[-82.798876,29.114504],[-82.827073,29.158425],[-82.927107,29.168907],[-82.996144,29.178074],[-83.016248,29.125371],[-83.053207,29.130839],[-83.078986,29.196944],[-83.074734,29.247975],[-83.107477,29.268889],[-83.1655541262812,29.288964743454],[-83.169576,29.290355],[-83.175518,29.34469],[-83.202446,29.394422],[-83.240509,29.433178],[-83.294747,29.437923],[-83.307828,29.468861],[-83.401552,29.523291],[-83.405068,29.59557],[-83.4141422518799,29.6661877064703],[-83.414701,29.670536],[-83.483567,29.698542],[-83.537645,29.72306],[-83.583045,29.787307],[-83.625026,29.856892],[-83.679219,29.918513],[-83.788729,29.976982],[-83.93151,30.039068],[-83.992310340478,30.0892687377287],[-84.000716,30.096209],[-84.06299,30.101378],[-84.0761320719114,30.0990898837301],[-84.124889,30.090601],[-84.179149,30.073187],[-84.20801,30.084776],[-84.289727,30.057197],[-84.366115,30.008662],[-84.3454463222869,29.9697520164336],[-84.341439,29.962208],[-84.333746,29.923721],[-84.349066,29.896812],[-84.423834,29.902996],[-84.470323,29.924524],[-84.535873,29.910092],[-84.57744,29.887828],[-84.564976,29.81018],[-84.604003,29.786021],[-84.692619,29.763039],[-84.776954,29.692191],[-84.876731,29.655758],[-85.045074,29.586991],[-85.15731,29.64289],[-85.2201422739545,29.666453713282],[-85.259719,29.681296],[-85.352615,29.659787],[-85.40283,29.758782],[-85.416548,29.842628],[-85.38473,29.920949],[-85.3891608928388,29.924059309219],[-85.425956,29.949888],[-85.487764,29.961227],[-85.571907,30.02644],[-85.601178,30.056342],[-85.69681,30.09689],[-85.811219,30.17832],[-85.9959431575134,30.2688232673284],[-85.999937,30.27078],[-86.089963,30.303569],[-86.1797305763763,30.3306594488474],[-86.222561,30.343585],[-86.3973810669074,30.3774955636999],[-86.412076,30.380346],[-86.632953,30.396299],[-86.7995592762003,30.3845638782264],[-86.850625,30.380967],[-86.9188732979657,30.3690493508797],[-87.155392,30.327748],[-87.2288564841704,30.3197321482474],[-87.267827,30.31548],[-87.319518,30.317814],[-87.419859,30.297128],[-87.518324,30.280435],[-87.452282,30.344097],[-87.431784,30.403193],[-87.366601,30.436643],[-87.414685,30.457289],[-87.444722,30.507484],[-87.43145,30.550252],[-87.401189,30.604383],[-87.400189,30.657201],[-87.442291,30.692661],[-87.523621,30.738285],[-87.542268,30.767481],[-87.634943,30.865857],[-87.592064,30.95146],[-87.598937,30.997422]]]]}},{"type":"Feature","properties":{"state":"TN","name":"Tennessee","statefp":"47"},"geometry":{"type":"Polygon","coordinates":[[[-90.265296,35.040293],[-90.197146,35.050731],[-90.181387,35.091401],[-90.160058,35.12883],[-90.09061,35.118287],[-90.099777,35.164474],[-90.093285,35.203282],[-90.097947,35.249983],[-90.166594,35.274588],[-90.121864,35.304535],[-90.087903,35.36327],[-90.112504,35.410153],[-90.070549,35.423291],[-90.045306,35.415435],[-90.022064,35.457375],[-90.045805,35.496533],[-90.037615,35.550329],[-89.958498,35.541703],[-89.944754,35.560308],[-89.9325,35.607865],[-89.876548,35.626653],[-89.898916,35.650904],[-89.956589,35.695486],[-89.915491,35.754917],[-89.863874,35.747592],[-89.797053,35.782648],[-89.723426,35.809382],[-89.729517,35.847632],[-89.722634,35.873718],[-89.64727,35.89492],[-89.6491186188564,35.9047155762998],[-89.652279,35.921462],[-89.686924,35.947716],[-89.733095,36.000608],[-89.692437,36.020507],[-89.680029,36.082494],[-89.64302,36.10362],[-89.592102,36.135637],[-89.623804,36.183128],[-89.6276414416754,36.185460316606],[-89.69263,36.224959],[-89.678046,36.248284],[-89.602374,36.238106],[-89.554289,36.277751],[-89.611819,36.309088],[-89.600544,36.342985],[-89.5450313339691,36.344271398663],[-89.522695,36.344789],[-89.51038,36.378356],[-89.542337,36.420103],[-89.521021,36.461934],[-89.539232,36.497934],[-89.417293,36.499033],[-89.3451943195388,36.5013432086369],[-89.211409,36.50563],[-88.964471,36.502191],[-88.8345890228743,36.5019803422593],[-88.8271780363405,36.5019683222569],[-88.8167641573481,36.5019514318132],[-88.5163580599794,36.5014641981633],[-88.51192,36.501457],[-88.4890767387132,36.5012837190757],[-88.127378,36.49854],[-88.0533508007759,36.4999962506816],[-88.050466,36.500053],[-88.033802,36.551733],[-88.055738,36.630475],[-88.070532,36.678118],[-88.011792,36.677025],[-87.849567,36.663701],[-87.853204,36.633247],[-87.6941859078643,36.6368382439437],[-87.64115,36.638036],[-87.347796,36.64144],[-87.3359790500808,36.6415771604931],[-87.1150035566884,36.6441420446512],[-87.0608263443929,36.6447708848516],[-86.813037,36.647647],[-86.7632909641085,36.6487206745018],[-86.606394,36.652107],[-86.5620676518653,36.6407466739073],[-86.551292,36.637985],[-86.507771,36.652445],[-86.4114961989664,36.6482404228482],[-86.205565269856,36.6392468703288],[-86.081944,36.633848],[-85.975713174144,36.6286377186817],[-85.873857,36.623642],[-85.7885565436139,36.6217118590347],[-85.731862,36.620429],[-85.488353,36.614994],[-85.4364042728859,36.618003845027],[-85.2958124857275,36.6261495593675],[-85.290627,36.62645],[-85.2762879474994,36.6261575408034],[-85.096128,36.622483],[-84.9748684358374,36.6145833593172],[-84.943948,36.612569],[-84.7853999785503,36.6033754199356],[-84.785341,36.603372],[-84.7784558643505,36.6032105122159],[-84.499938,36.596678],[-84.2613212015047,36.592741697267],[-84.227332,36.592181],[-84.2271939619983,36.5921795123551],[-83.987842,36.5896],[-83.9876109506828,36.5895922860725],[-83.9307607839439,36.5876942581124],[-83.894421,36.586481],[-83.690714,36.582581],[-83.675413,36.600814],[-83.4720935738096,36.5994757320593],[-83.2763,36.598187],[-82.9844584955724,36.59528996905],[-82.830433,36.593761],[-82.609181949399,36.5950896860685],[-82.487238,36.595822],[-82.2941364201291,36.5950730329585],[-82.2433850052002,36.5948761876654],[-82.173982,36.594607],[-82.1455732705145,36.5945603308341],[-81.934144,36.594213],[-81.922644,36.616213],[-81.8267341480526,36.6147191041614],[-81.6469,36.611918],[-81.677535,36.588117],[-81.699962,36.536829],[-81.695311,36.467912],[-81.734312,36.413342],[-81.7253728028917,36.3897385587113],[-81.705966,36.338496],[-81.768977,36.341042],[-81.833202,36.347339],[-81.908137,36.302013],[-81.9184444729048,36.2873579173821],[-81.9343692444926,36.2647162043798],[-81.960101,36.228131],[-82.02874,36.124322],[-82.080143,36.10572],[-82.0811489171324,36.1056921143326],[-82.127146,36.104417],[-82.140847,36.136216],[-82.211251,36.159012],[-82.2202530102866,36.1538200398431],[-82.26569,36.127614],[-82.297655,36.13351],[-82.346857,36.115209],[-82.409458,36.083409],[-82.4169375946732,36.0729700107085],[-82.464558,36.006508],[-82.5080076597225,35.9820132054415],[-82.557874,35.953901],[-82.610885,35.974442],[-82.595525,36.026012],[-82.6057036107936,36.0371988635619],[-82.628365,36.062105],[-82.725065,36.018204],[-82.779397,35.992511],[-82.787465,35.952163],[-82.81613,35.923986],[-82.860724,35.94743],[-82.8937514184314,35.9338572697089],[-82.910608,35.92693],[-82.899718,35.874602],[-82.937437,35.82732],[-82.9666497428986,35.795445979574],[-82.978414,35.78261],[-83.04853,35.787706],[-83.097193,35.776067],[-83.161537,35.763363],[-83.198267,35.725494],[-83.255351,35.71623],[-83.2561415523036,35.7151240626578],[-83.26474416829,35.7030894961701],[-83.297154,35.65775],[-83.347262,35.660474],[-83.421576,35.611186],[-83.452431,35.602918],[-83.498335,35.562981],[-83.587827,35.566963],[-83.653159,35.568309],[-83.6629119015893,35.5677997932083],[-83.771736,35.562118],[-83.848502,35.519259],[-83.916801,35.473612],[-83.9532313801504,35.4600208895767],[-83.9589178345639,35.4578994395799],[-83.973171,35.452582],[-84.021782,35.407418],[-84.007586,35.371661],[-84.038081,35.348363],[-84.02351,35.295783],[-84.0291044137725,35.2921237764939],[-84.097508,35.247382],[-84.178516,35.240679],[-84.223718,35.269078],[-84.28322,35.226577],[-84.2865983787409,35.2057582184959],[-84.321869,34.988408],[-84.509052,34.988033],[-84.621483,34.988329],[-84.727434,34.98802],[-84.7758376712973,34.9879372061493],[-84.8104774668864,34.9878779552292],[-84.861314,34.987791],[-84.9769738065923,34.9872198373549],[-84.9798540252315,34.9872056139756],[-85.045183,34.986883],[-85.2650550217158,34.9850776447417],[-85.277556,34.984975],[-85.3639190289311,34.9833765631405],[-85.384967,34.982987],[-85.4743388431343,34.9836733267911],[-85.605165,34.984678],[-85.8639461118069,34.9870308587481],[-86.311274,34.991098],[-86.3187607654651,34.9910785804428],[-86.467798,34.990692],[-86.783628017169,34.991924921992],[-86.783648,34.991925],[-86.8362863159495,34.992803004217],[-87.2107585799823,34.9990491809997],[-87.216683,34.999148],[-87.2240536418757,34.9992307419721],[-87.424908998267,35.0014855209409],[-87.6060978676533,35.0035195262043],[-87.625025,35.003732],[-87.851886,35.005656],[-87.9849160436989,35.0059101243258],[-88.000032,35.005939],[-88.202959,35.008028],[-88.200064,34.995634],[-88.258111,34.995463],[-88.3635302685392,34.9957467517971],[-88.3804925115221,34.9957924082221],[-88.469877,34.996033],[-88.786612,34.995252],[-88.823050501632,34.995207045695],[-89.0171270115524,34.9949676128363],[-89.02654,34.994956],[-89.198287901495,34.9944505301151],[-89.3526793918484,34.9939961417459],[-89.434954,34.993754],[-89.644051831619,34.994066863428],[-89.7066076930667,34.9941604628742],[-89.724322525596,34.9941869687599],[-89.795187,34.994293],[-90.309297,34.995694],[-90.300697,35.028793],[-90.265296,35.040293]]]}},{"type":"Feature","properties":{"state":"LA","name":"Louisiana","statefp":"22"},"geometry":{"type":"Polygon","coordinates":[[[-94.043026,32.797476],[-94.0430026215633,32.881088978924],[-94.042964,33.019219],[-93.8145980610549,33.0193890113342],[-93.8071252110518,33.0193945746385],[-93.723273,33.019457],[-93.5209925078522,33.0187422898925],[-93.4905581209888,33.0186347572102],[-93.377134,33.018234],[-93.2386468140122,33.0180159427056],[-93.197402,33.017951],[-92.9887760560898,33.0172511697504],[-92.971137,33.017192],[-92.7247431731793,33.0143417676748],[-92.723553,33.014328],[-92.501383,33.01216],[-92.222825,33.00908],[-92.0690147239268,33.0084819174935],[-92.0689280885167,33.0084815806166],[-91.875128,33.007728],[-91.489176,33.006182],[-91.4603762339211,33.0059969558674],[-91.4359307415474,33.0058398887954],[-91.2645640502205,33.0047388242705],[-91.166073,33.004106],[-91.134414,32.980533],[-91.072075,32.937832],[-91.070602,32.888659],[-91.13789,32.848975],[-91.161669,32.812465],[-91.157614,32.776033],[-91.113652,32.73997],[-91.056999,32.72558],[-91.098762,32.685291],[-91.079506,32.60068],[-91.0554092828289,32.5790876048294],[-91.049312,32.573624],[-91.0487604277637,32.5727970404214],[-91.011275,32.516596],[-91.060516,32.512361],[-91.052907,32.438442],[-90.965986,32.424806],[-90.986672,32.35176],[-90.92117,32.342073],[-90.947834,32.283486],[-90.991227,32.214662],[-91.108509,32.20815],[-91.039472318907,32.1079681426653],[-91.034707,32.101053],[-91.079108,32.050255],[-91.080808,32.023456],[-91.117409,31.987057],[-91.17741,31.973257],[-91.18111,31.920059],[-91.234899,31.876863],[-91.2440151613247,31.8697324375039],[-91.290135,31.833658],[-91.345714,31.842861],[-91.359514,31.799362],[-91.3204587332816,31.7478006144822],[-91.318576,31.745315],[-91.3801245299835,31.73262695305],[-91.380915,31.732464],[-91.395715,31.644165],[-91.463817,31.620365],[-91.457517,31.587566],[-91.437616,31.546166],[-91.489618,31.534266],[-91.51714,31.498394],[-91.510356,31.438928],[-91.532336,31.390275],[-91.536061,31.338355],[-91.508858,31.291644],[-91.564192,31.261633],[-91.621358,31.267811],[-91.644356,31.234414],[-91.590051,31.193693],[-91.5909938930645,31.1919985656988],[-91.621671,31.13687],[-91.594693,31.091444],[-91.560365,31.049508],[-91.6282572982088,31.0050970018952],[-91.636942,30.999416],[-91.224068,30.999183],[-91.1761401239669,30.9992242023186],[-91.0601274679966,30.9993239353092],[-90.8258291412919,30.9995253553406],[-90.758775,30.999583],[-90.5671954006585,30.9999450243999],[-90.5475744252331,30.9999821017916],[-90.3473046214524,31.0003605479089],[-90.346007,31.000363],[-90.2595549404913,31.0006617812291],[-89.897516,31.001913],[-89.8359078243282,31.0021014231176],[-89.728147,31.002431],[-89.7281756901606,31.0023138879841],[-89.750073,30.91293],[-89.791745,30.820387],[-89.836331,30.727197],[-89.8261803591152,30.6688232701852],[-89.821868,30.644024],[-89.791664,30.551524],[-89.712493,30.47751],[-89.6999320828408,30.454036880786],[-89.678514,30.414012],[-89.634208,30.308256],[-89.607655,30.217096],[-89.524504,30.180753],[-89.6050884565546,30.1428141575593],[-89.656986,30.118381],[-89.683712,30.076018],[-89.782534,30.045372],[-89.845065,30.01841],[-89.8452971195724,30.0163818405701],[-89.852583,29.952721],[-89.795969,29.934003],[-89.744272,29.917647],[-89.701725,29.874085],[-89.647064,29.863602],[-89.598129,29.881409],[-89.574425,29.983738],[-89.494064,30.040972],[-89.444618,30.060959],[-89.342163,30.059172],[-89.303026,30.09157],[-89.233168,30.134957],[-89.183256,30.149344],[-89.185799,30.063934],[-89.215675,29.993523],[-89.231178,29.925484],[-89.236298,29.877081],[-89.293251,29.803053],[-89.271034,29.756355],[-89.399162,29.770592],[-89.403956,29.681808],[-89.465562,29.651738],[-89.5009667531337,29.6334554250588],[-89.504738,29.631508],[-89.535202,29.648567],[-89.602109,29.610295],[-89.564615,29.543786],[-89.569607,29.494044],[-89.53215,29.434567],[-89.482318,29.406222],[-89.380001,29.391785],[-89.312085,29.388038],[-89.257852,29.336872],[-89.200389,29.344418],[-89.134337,29.27934],[-89.116653,29.219532],[-89.025974,29.215153],[-89.01428,29.166913],[-89.066617,29.090714],[-89.11653,29.074097],[-89.148792,29.02967],[-89.142866,28.991623],[-89.218673,29.022515],[-89.259354,29.058358],[-89.322011,29.010251],[-89.400966,28.933812],[-89.40353,29.016964],[-89.361098,29.071848],[-89.390515,29.123576],[-89.432932,29.149023],[-89.482844,29.215053],[-89.564551,29.242527],[-89.606651,29.252023],[-89.639663,29.290531],[-89.726162,29.304026],[-89.842641,29.318823],[-89.883463,29.307103],[-89.9027063240243,29.293036606496],[-89.95646,29.253744],[-90.058512,29.183687],[-90.0898354481942,29.1644753566211],[-90.122753,29.144286],[-90.223587,29.085075],[-90.334935,29.063803],[-90.4096172499074,29.0584338645091],[-90.442734,29.056053],[-90.488117,29.05876],[-90.652116,29.057721],[-90.748377,29.04006],[-90.81255,29.042138],[-90.867853,29.056064],[-90.877583,29.104891],[-90.941877,29.162373],[-91.000096,29.169481],[-91.094015,29.187711],[-91.158148,29.2181],[-91.278792,29.247776],[-91.334885,29.298775],[-91.276647,29.329825],[-91.265452,29.360976],[-91.2663226707192,29.361363733346],[-91.334051,29.391525],[-91.363967,29.420664],[-91.347514,29.444438],[-91.394307,29.497115],[-91.460963,29.469961],[-91.48559,29.499116],[-91.531021,29.531543],[-91.537445,29.565888],[-91.541974,29.594353],[-91.600179,29.631156],[-91.643832,29.630625],[-91.623829,29.69924],[-91.667128,29.745822],[-91.737253,29.74937],[-91.808142,29.725097],[-91.85307,29.702936],[-91.8625569965226,29.6673954637599],[-91.873266,29.627277],[-91.80373,29.595952],[-91.711081,29.569328],[-91.768263,29.490362],[-91.821579,29.473925],[-91.915321,29.518513],[-92.030186,29.572669],[-92.0428943038274,29.577480288972],[-92.064513,29.585665],[-92.158624,29.581616],[-92.25186,29.539354],[-92.323465,29.531497],[-92.40986,29.547477],[-92.473585,29.561081],[-92.568038,29.577397],[-92.6160814772774,29.5887857069487],[-92.684486,29.605001],[-92.879992,29.680285],[-92.993128,29.723846],[-93.088182,29.749125],[-93.17693,29.770487],[-93.295573,29.775071],[-93.411087,29.767357],[-93.538462,29.763299],[-93.741948,29.736343],[-93.79925,29.71526],[-93.837971,29.690619],[-93.863204,29.724059],[-93.890821,29.761673],[-93.929208,29.802952],[-93.872446,29.85165],[-93.8523098709223,29.8720910043919],[-93.830374,29.894359],[-93.807815,29.954549],[-93.741078,30.021571],[-93.7061835663174,30.0523143321691],[-93.70394,30.054291],[-93.702436,30.112721],[-93.703764,30.173936],[-93.713359,30.225261],[-93.7110621713009,30.2439707156403],[-93.70719,30.275513],[-93.760328,30.329924],[-93.745333,30.397022],[-93.7381729998702,30.4025470540047],[-93.702665,30.429947],[-93.710117,30.5064],[-93.729195,30.544842],[-93.684329,30.592586],[-93.685121,30.625201],[-93.629904,30.67994],[-93.617688,30.738479],[-93.569303,30.802969],[-93.558617,30.869424],[-93.5545758543455,30.8774695018611],[-93.530936,30.924534],[-93.549841,30.967118],[-93.539526,31.008498],[-93.531219,31.051678],[-93.540278,31.128868],[-93.535097,31.185614],[-93.5524973075023,31.1848200234468],[-93.6006030873629,31.1826249552688],[-93.602443,31.182541],[-93.613942,31.259375],[-93.67544,31.30104],[-93.668146,31.375103],[-93.697603,31.428409],[-93.749476,31.46869],[-93.725925,31.504092],[-93.787687,31.527344],[-93.834924,31.586211],[-93.816838,31.622509],[-93.803419,31.700686],[-93.85339,31.805467],[-93.8782518953866,31.8442765572456],[-93.909557,31.893144],[-93.977461,31.926419],[-94.029428406596,31.979686964168],[-94.041833,31.992402],[-94.042681,32.137956],[-94.0426959391654,32.1960649748209],[-94.042739,32.363559],[-94.0427882328053,32.3922831932812],[-94.043083,32.564261],[-94.0430515276176,32.6930299766656],[-94.043026,32.797476]]]}},{"type":"Feature","properties":{"state":"MS","name":"Mississippi","statefp":"28"},"geometry":{"type":"Polygon","coordinates":[[[-91.564192,31.261633],[-91.508858,31.291644],[-91.536061,31.338355],[-91.532336,31.390275],[-91.510356,31.438928],[-91.51714,31.498394],[-91.489618,31.534266],[-91.437616,31.546166],[-91.457517,31.587566],[-91.463817,31.620365],[-91.395715,31.644165],[-91.380915,31.732464],[-91.3801245299835,31.73262695305],[-91.318576,31.745315],[-91.3204587332816,31.7478006144822],[-91.359514,31.799362],[-91.345714,31.842861],[-91.290135,31.833658],[-91.2440151613247,31.8697324375039],[-91.234899,31.876863],[-91.18111,31.920059],[-91.17741,31.973257],[-91.117409,31.987057],[-91.080808,32.023456],[-91.079108,32.050255],[-91.034707,32.101053],[-91.039472318907,32.1079681426653],[-91.108509,32.20815],[-90.991227,32.214662],[-90.947834,32.283486],[-90.92117,32.342073],[-90.986672,32.35176],[-90.965986,32.424806],[-91.052907,32.438442],[-91.060516,32.512361],[-91.011275,32.516596],[-91.0487604277637,32.5727970404214],[-91.049312,32.573624],[-91.0554092828289,32.5790876048294],[-91.079506,32.60068],[-91.098762,32.685291],[-91.056999,32.72558],[-91.113652,32.73997],[-91.157614,32.776033],[-91.161669,32.812465],[-91.13789,32.848975],[-91.070602,32.888659],[-91.072075,32.937832],[-91.134414,32.980533],[-91.166073,33.004106],[-91.1596060796211,33.0112423416025],[-91.120379,33.05453],[-91.180836,33.098364],[-91.153015,33.135093],[-91.104317,33.131598],[-91.084366,33.180856],[-91.068708,33.232936],[-91.086137,33.273652],[-91.125539,33.280255],[-91.142219,33.348989],[-91.113764,33.393124],[-91.147663,33.427172],[-91.171799,33.462342],[-91.189375,33.493005],[-91.2156615141091,33.5294098627481],[-91.215671,33.529423],[-91.206415960587,33.5456284081563],[-91.188942,33.576225],[-91.130902,33.610919],[-91.178311,33.651109],[-91.10098,33.660551],[-91.075389,33.714403],[-91.143287,33.747141],[-91.111494,33.774568],[-91.08551,33.77641],[-91.026782,33.763642],[-91.025173,33.805953],[-91.052819,33.824181],[-91.061247,33.877505],[-91.026382,33.90798],[-91.035961,33.943758],[-91.088696,33.961334],[-91.048367,33.985078],[-91.004981,33.977011],[-90.979945,34.000106],[-90.942662,34.01805],[-90.89242,34.02686],[-90.874541,34.072041],[-90.90113,34.094667],[-90.946323,34.109374],[-90.9448449522363,34.1164215264479],[-90.9440807601938,34.1200652947774],[-90.938064,34.148754],[-90.894385,34.160953],[-90.882701,34.184364],[-90.89456,34.22438],[-90.839981,34.236114],[-90.812829,34.279438],[-90.752681,34.289266],[-90.765174,34.342818],[-90.729131,34.364206],[-90.660404,34.33576],[-90.641398,34.383869],[-90.575336,34.415152],[-90.583717,34.458829],[-90.5694607451505,34.5243442788972],[-90.569347,34.524867],[-90.549244,34.568101],[-90.587224,34.615732],[-90.5748549582232,34.6316539794501],[-90.550158,34.663445],[-90.546053,34.702076],[-90.505494,34.764568],[-90.473527,34.788835],[-90.463795,34.834923],[-90.4079823819208,34.835265981566],[-90.401633,34.835305],[-90.313476,34.871698],[-90.3114467159881,34.872838517743],[-90.250095,34.90732],[-90.244476,34.937596],[-90.309297,34.995694],[-89.795187,34.994293],[-89.724322525596,34.9941869687599],[-89.7066076930667,34.9941604628742],[-89.644051831619,34.994066863428],[-89.434954,34.993754],[-89.3526793918484,34.9939961417459],[-89.198287901495,34.9944505301151],[-89.02654,34.994956],[-89.0171270115524,34.9949676128363],[-88.823050501632,34.995207045695],[-88.786612,34.995252],[-88.469877,34.996033],[-88.3804925115221,34.9957924082221],[-88.3635302685392,34.9957467517971],[-88.258111,34.995463],[-88.200064,34.995634],[-88.154617,34.922392],[-88.097888,34.892202],[-88.134263,34.62266],[-88.1395594412474,34.5816967458839],[-88.1549021840087,34.46303430044],[-88.1732617345949,34.3210395343343],[-88.2035834952194,34.0865277314681],[-88.207229,34.058333],[-88.2483874739095,33.7449075948817],[-88.254445,33.698779],[-88.2745163342439,33.534002598714],[-88.3044428135104,33.28832],[-88.317135,33.184123],[-88.3400849921393,32.991264337875],[-88.3474902478349,32.9290347868805],[-88.373338,32.711825],[-88.3892485641243,32.5781223959586],[-88.4213122213943,32.3086791230113],[-88.428278,32.250143],[-88.4311453634628,32.2276362346889],[-88.46866,31.933173],[-88.4686624840513,31.8938557116156],[-88.468669,31.790722],[-88.4636253046849,31.6979423713502],[-88.459478,31.621652],[-88.4494460690171,31.4358368612776],[-88.44866,31.421277],[-88.432007,31.114298],[-88.4260209637871,30.9982813574303],[-88.4150475999783,30.7856042566701],[-88.4124674313592,30.7355974592153],[-88.41227,30.731771],[-88.403931,30.543359],[-88.395023,30.369425],[-88.409927,30.342115],[-88.446495,30.347753],[-88.471875,30.32002],[-88.522494,30.340092],[-88.581929,30.331063],[-88.613006,30.353964],[-88.66382,30.362099],[-88.700587,30.343689],[-88.746945,30.347622],[-88.8003435152035,30.3572641730949],[-88.818762,30.36059],[-88.89393,30.393398],[-88.971233,30.390798],[-89.083237,30.368097],[-89.18684,30.331197],[-89.294444,30.307596],[-89.3070237608445,30.3039947802441],[-89.344746,30.293196],[-89.424624,30.245391],[-89.447465,30.205098],[-89.475824,30.191561],[-89.524504,30.180753],[-89.607655,30.217096],[-89.634208,30.308256],[-89.678514,30.414012],[-89.6999320828408,30.454036880786],[-89.712493,30.47751],[-89.791664,30.551524],[-89.821868,30.644024],[-89.8261803591152,30.6688232701852],[-89.836331,30.727197],[-89.791745,30.820387],[-89.750073,30.91293],[-89.7281756901606,31.0023138879841],[-89.728147,31.002431],[-89.8359078243282,31.0021014231176],[-89.897516,31.001913],[-90.2595549404913,31.0006617812291],[-90.346007,31.000363],[-90.3473046214524,31.0003605479089],[-90.5475744252331,30.9999821017916],[-90.5671954006585,30.9999450243999],[-90.758775,30.999583],[-90.8258291412919,30.9995253553406],[-91.0601274679966,30.9993239353092],[-91.1761401239669,30.9992242023186],[-91.224068,30.999183],[-91.636942,30.999416],[-91.6282572982088,31.0050970018952],[-91.560365,31.049508],[-91.594693,31.091444],[-91.621671,31.13687],[-91.5909938930645,31.1919985656988],[-91.590051,31.193693],[-91.644356,31.234414],[-91.621358,31.267811],[-91.564192,31.261633]]]}},{"type":"Feature","properties":{"state":"WV","name":"West Virginia","statefp":"54"},"geometry":{"type":"Polygon","coordinates":[[[-80.036236,37.96792],[-80.0558115945897,37.9518782200979],[-80.131931,37.8895],[-80.199633,37.827507],[-80.218616,37.783291],[-80.258143,37.720612],[-80.290033810255,37.686136458971],[-80.292258,37.683732],[-80.2243032443768,37.6239913711709],[-80.223386,37.623185],[-80.28244,37.585481],[-80.291644,37.536505],[-80.39988,37.462314],[-80.46482,37.426144],[-80.4695688905042,37.4290254659927],[-80.544836,37.474695],[-80.664971,37.414215],[-80.770082,37.372363],[-80.836446,37.424355],[-80.8573585701898,37.421128713999],[-80.8581481168198,37.4210069067215],[-80.865148,37.419927],[-80.883248,37.383933],[-80.835479,37.334824],[-80.919259,37.306163],[-80.9808452568928,37.3008528161905],[-80.996013,37.299545],[-81.112596,37.278497],[-81.225104,37.234874],[-81.362156,37.337687],[-81.427946,37.271015],[-81.483559,37.250604],[-81.53307,37.223414],[-81.560625,37.206663],[-81.678603,37.202467],[-81.7390550304855,37.2394971038728],[-81.744003,37.242528],[-81.774747,37.274847],[-81.849949,37.285227],[-81.896001,37.331967],[-81.933601,37.389217],[-81.93695,37.41992],[-81.984891,37.454315],[-81.932279,37.511961],[-81.968297,37.537798],[-82.064418,37.544516],[-82.141555,37.595166],[-82.226111,37.653092],[-82.296118,37.686174],[-82.3206749571778,37.7459658434594],[-82.327356,37.762233],[-82.369973,37.801749],[-82.3984648162589,37.8430541504629],[-82.41869,37.872375],[-82.487556,37.916975],[-82.479420123223,37.9385625246981],[-82.464987,37.976859],[-82.48764909479839,38.0],[-80.00894285024737,38.0],[-80.036236,37.96792]]]}},{"type":"Feature","properties":{"state":"OK","name":"Oklahoma","statefp":"40"},"geometry":{"type":"Polygon","coordinates":[[[-99.995201,37.001631],[-99.657658,37.000197],[-99.5411149123609,36.9999096445655],[-99.4562024346753,36.9997002794079],[-99.407015,36.999579],[-99.129449,36.999422],[-99.0003010538842,36.9993580981444],[-98.791936,36.999255],[-98.5446619733489,36.9985242404006],[-98.354073,36.997961],[-98.3471487797447,36.9979692086496],[-98.1119851837458,36.9982479946353],[-98.045342,36.998327],[-97.8023129703503,36.998698609394],[-97.768704,36.99875],[-97.4623460298641,36.9988242387969],[-97.384925,36.998843],[-97.1477209669227,36.9989723356215],[-97.100652,36.998998],[-96.749838,36.998988],[-96.5255820442829,36.9986779687248],[-96.500288,36.998643],[-96.217571,36.99907],[-96.0008102061996,36.9992010529279],[-95.9642712321022,36.9992231442824],[-95.928122,36.999245],[-95.7867618707782,36.999270917592],[-95.573598,36.99931],[-95.5224145523987,36.9993197867829],[-95.407733005873,36.9993417150323],[-95.322565,36.999358],[-95.0735039666303,36.9994881346791],[-95.0076200044721,36.9995225591258],[-94.995293,36.999529],[-94.71277,36.998794],[-94.617964,36.998905],[-94.618307,36.76656],[-94.6179917784172,36.6679212723442],[-94.617815,36.612604],[-94.617919,36.499414],[-94.5862,36.299969],[-94.5622679285528,36.1619726146264],[-94.5518886566514,36.1021239714216],[-94.532071,35.987852],[-94.494549,35.768303],[-94.4930532906959,35.7592465106763],[-94.4731193906467,35.6385471525294],[-94.449696,35.496719],[-94.4348090628047,35.3926242553894],[-94.4340725641195,35.387474395379],[-94.431515,35.369591],[-94.435316,35.275893],[-94.4363568693981,35.2467061646578],[-94.4475060874703,34.9340729057232],[-94.449058,34.890556],[-94.4543955288439,34.7289436942281],[-94.4575,34.634945],[-94.4611686861559,34.5074566515725],[-94.465425,34.359548],[-94.470143947319,34.1901776556377],[-94.474895,34.019655],[-94.4772691832212,33.9408298614626],[-94.481842,33.789008],[-94.485875,33.637867],[-94.528928,33.62184],[-94.572872,33.669886],[-94.630586,33.673401],[-94.714865,33.707261],[-94.7319329019959,33.7208305162803],[-94.766146,33.748031],[-94.841634,33.739431],[-94.902276,33.776289],[-94.93956,33.810503],[-94.98165,33.852284],[-95.046568,33.862565],[-95.095002,33.904816],[-95.149462,33.936336],[-95.1559076171075,33.9384823885698],[-95.226393,33.961954],[-95.253623,33.92971],[-95.283445,33.877746],[-95.3104497954491,33.8738430381855],[-95.352338,33.867789],[-95.44737,33.86885],[-95.525322,33.885487],[-95.556915,33.92702],[-95.603657,33.927195],[-95.669978,33.905844],[-95.737508,33.895967],[-95.7896393177523,33.8724373846723],[-95.820596,33.858465],[-95.8448785340707,33.860421904719],[-95.887491,33.863856],[-95.935325,33.875099],[-96.063924,33.841523],[-96.15163,33.831946],[-96.173025,33.80056],[-96.229023,33.748021],[-96.277269,33.769735],[-96.307389,33.735005],[-96.363135,33.694215],[-96.3796608259521,33.715530908566],[-96.403507,33.746289],[-96.436455,33.78005],[-96.502286,33.77346],[-96.523863,33.818114],[-96.572937,33.819098],[-96.592926,33.830916],[-96.590112,33.880665],[-96.5946743073771,33.8830186573983],[-96.659896,33.916666],[-96.682103,33.876645],[-96.712422,33.831633],[-96.776766,33.841976],[-96.794276,33.868886],[-96.850593,33.847211],[-96.897194,33.902954],[-96.905253,33.947219],[-96.934343303133,33.9455889292528],[-96.9446168883705,33.945013250454],[-96.952313,33.944582],[-96.988745,33.918468],[-96.985567,33.886522],[-97.055838,33.855741],[-97.07859,33.812756],[-97.087852,33.774099],[-97.091072,33.735115],[-97.149394,33.721967],[-97.205652,33.809824],[-97.166629,33.847311],[-97.206141,33.91428],[-97.24618,33.900344],[-97.318243,33.865121],[-97.372941,33.819454],[-97.444193,33.823773],[-97.451469,33.87093],[-97.4841434385876,33.9138891088909],[-97.486505,33.916994],[-97.55827,33.897099],[-97.5612431502211,33.899061506733],[-97.596155,33.922106],[-97.609091,33.968093],[-97.671772,33.99137],[-97.759834,33.92521],[-97.803473,33.88019],[-97.865765,33.849393],[-97.951215,33.878424],[-97.9519059508552,33.8912258148573],[-97.953695,33.924373],[-97.947572,33.991053],[-98.005667,33.995964],[-98.082839,34.002412],[-98.099096,34.048639],[-98.099328,34.104295],[-98.123377,34.15454],[-98.1384860257464,34.1412060197111],[-98.16912,34.114171],[-98.225282,34.127245],[-98.31875,34.146421],[-98.364023,34.157109],[-98.398441,34.128456],[-98.414426,34.085074],[-98.423533,34.0819494760059],[-98.475066,34.064269],[-98.5282,34.094961],[-98.577136,34.148962],[-98.6102002179226,34.1561768671247],[-98.648073,34.164441],[-98.690072,34.133155],[-98.737232,34.130992],[-98.80681,34.155901],[-98.872229,34.160446],[-98.94022,34.203686],[-98.9523248875282,34.2046698986035],[-99.002916,34.208782],[-99.0588,34.201256],[-99.131553,34.209352],[-99.189511,34.214312],[-99.2116,34.31397],[-99.2216079008455,34.3253735743726],[-99.27534,34.386599],[-99.350407,34.437083],[-99.394956,34.442099],[-99.420432,34.380464],[-99.470969,34.396471],[-99.4750221370384,34.3968709897905],[-99.58448,34.407673],[-99.600026,34.374688],[-99.696462,34.381036],[-99.764882,34.435266],[-99.818186,34.48784],[-99.8420638841464,34.5069327688814],[-99.929334,34.576714],[-99.997629328163,34.5611366245601],[-100.0,34.56059590169888],[-100.0,37.00162328691869],[-99.995201,37.001631]]]}},{"type":"Feature","properties":{"state":"NC","name":"North Carolina","statefp":"37"},"geometry":{"type":"Polygon","coordinates":[[[-84.28322,35.226577],[-84.223718,35.269078],[-84.178516,35.240679],[-84.097508,35.247382],[-84.0291044137725,35.2921237764939],[-84.02351,35.295783],[-84.038081,35.348363],[-84.007586,35.371661],[-84.021782,35.407418],[-83.973171,35.452582],[-83.9589178345639,35.4578994395799],[-83.9532313801504,35.4600208895767],[-83.916801,35.473612],[-83.848502,35.519259],[-83.771736,35.562118],[-83.6629119015893,35.5677997932083],[-83.653159,35.568309],[-83.587827,35.566963],[-83.498335,35.562981],[-83.452431,35.602918],[-83.421576,35.611186],[-83.347262,35.660474],[-83.297154,35.65775],[-83.26474416829,35.7030894961701],[-83.2561415523036,35.7151240626578],[-83.255351,35.71623],[-83.198267,35.725494],[-83.161537,35.763363],[-83.097193,35.776067],[-83.04853,35.787706],[-82.978414,35.78261],[-82.9666497428986,35.795445979574],[-82.937437,35.82732],[-82.899718,35.874602],[-82.910608,35.92693],[-82.8937514184314,35.9338572697089],[-82.860724,35.94743],[-82.81613,35.923986],[-82.787465,35.952163],[-82.779397,35.992511],[-82.725065,36.018204],[-82.628365,36.062105],[-82.6057036107936,36.0371988635619],[-82.595525,36.026012],[-82.610885,35.974442],[-82.557874,35.953901],[-82.5080076597225,35.9820132054415],[-82.464558,36.006508],[-82.4169375946732,36.0729700107085],[-82.409458,36.083409],[-82.346857,36.115209],[-82.297655,36.13351],[-82.26569,36.127614],[-82.2202530102866,36.1538200398431],[-82.211251,36.159012],[-82.140847,36.136216],[-82.127146,36.104417],[-82.0811489171324,36.1056921143326],[-82.080143,36.10572],[-82.02874,36.124322],[-81.960101,36.228131],[-81.9343692444926,36.2647162043798],[-81.9184444729048,36.2873579173821],[-81.908137,36.302013],[-81.833202,36.347339],[-81.768977,36.341042],[-81.705966,36.338496],[-81.7253728028917,36.3897385587113],[-81.734312,36.413342],[-81.695311,36.467912],[-81.699962,36.536829],[-81.677535,36.588117],[-81.499831,36.57982],[-81.3532212246022,36.5762382311564],[-81.176712,36.571926],[-81.061866,36.56702],[-80.901726,36.561751],[-80.901661118921,36.561751187168],[-80.840213077246,36.5619284516373],[-80.704831,36.562319],[-80.6121887881246,36.5582162763804],[-80.4403427430004,36.5506059569159],[-80.431605,36.550219],[-80.295243,36.543973],[-80.0534550433501,36.5426394280866],[-80.0273389151412,36.5424953856142],[-80.027269,36.542495],[-79.714850811052,36.5414324847413],[-79.5136476625086,36.5407482050707],[-79.510647,36.540738],[-79.4700566739243,36.5408361497866],[-79.3431159193695,36.5411430999685],[-79.2184554959223,36.5414445361761],[-79.1383358988714,36.5416382700559],[-78.942009,36.542113],[-78.7962739551405,36.5417594935816],[-78.7341228011172,36.5416087348408],[-78.509965,36.541065],[-78.4572778962559,36.5414487083995],[-78.323718509559,36.5424213915586],[-78.132911,36.543811],[-78.0462083043603,36.5441976726866],[-77.8997741360467,36.5448507330424],[-77.7671039699267,36.5454424093355],[-77.749706,36.54552],[-77.2989182850567,36.546038840401],[-77.190175,36.546164],[-77.1643226037182,36.5461528198479],[-77.0716192313025,36.5461127292585],[-76.917318,36.546046],[-76.9160376328562,36.5460813302903],[-76.9157318023497,36.5460897693389],[-76.738329,36.550985],[-76.5419658657183,36.5507845323601],[-76.4914825754723,36.5507329938364],[-76.3133029682603,36.550551089807],[-76.313215,36.550551],[-76.1223499470101,36.5505523325541],[-76.02675,36.550553],[-75.867044,36.550754],[-75.838437,36.434897],[-75.79641,36.290351],[-75.7706514625597,36.2320803070508],[-75.71831,36.113674],[-75.658537,36.02043],[-75.569794,35.863301],[-75.51901,35.769087],[-75.496086,35.728515],[-75.458659,35.596597],[-75.486771,35.391652],[-75.533627,35.225825],[-75.635493,35.22026],[-75.7495614239622,35.1856163621922],[-75.757916,35.183079],[-75.912985,35.1196],[-76.013145,35.061855],[-76.137269,34.987858],[-76.233088,34.905477],[-76.31021,34.852309],[-76.386804,34.784579],[-76.450454,34.71445],[-76.535946,34.588577],[-76.553806,34.628252],[-76.618719,34.67255],[-76.726969,34.69669],[-76.906257,34.68282],[-77.1129643930768,34.6380928323915],[-77.136843,34.632926],[-77.240991,34.587507],[-77.322524,34.535574],[-77.462922,34.471354],[-77.5152165445848,34.4373849694266],[-77.635034,34.359555],[-77.7135131704588,34.2902471866868],[-77.764022,34.245641],[-77.829209,34.162618],[-77.8854550755211,34.038240984853],[-77.915536,33.971723],[-77.9348271350857,33.9205485057973],[-77.960172,33.853315],[-78.006765,33.858704],[-78.018689,33.888289],[-78.136952,33.912178],[-78.276147,33.912364],[-78.383964,33.901946],[-78.541087,33.851112],[-78.615932,33.915523],[-78.6508712805333,33.9450557205328],[-78.81171,34.081006],[-79.071169,34.29924],[-79.0712436122253,34.2993039510346],[-79.0712542010482,34.2993130268419],[-79.1083782887823,34.3311325283704],[-79.358317,34.545358],[-79.4502772890434,34.6206089970087],[-79.4617910310013,34.6300306785915],[-79.675299,34.804744],[-79.6929463837093,34.8049623069232],[-79.9246842531364,34.8078290197515],[-79.927398038772,34.807862590631],[-80.077223,34.809716],[-80.3208325711298,34.813620821544],[-80.561657,34.817481],[-80.5617085493824,34.8174824003365],[-80.796997,34.823874],[-80.782042,34.935782],[-80.8405485676148,35.0014509426323],[-80.9061786627212,35.0751154751148],[-80.93495,35.107409],[-81.041489,35.044703],[-81.058029,35.07319],[-81.036759,35.122552],[-81.0423024501386,35.1467686494682],[-81.04287,35.149248],[-81.3280909892918,35.1622859155574],[-81.3676041320777,35.1640921256134],[-81.494265,35.169882],[-81.7681344077739,35.1797077063839],[-81.8744102050921,35.183520599502],[-81.9693584012576,35.1869270884005],[-82.039651,35.189449],[-82.1058516370446,35.1908770736399],[-82.215996376597,35.1932531051427],[-82.295354,35.194965],[-82.3133570690064,35.196132318454],[-82.3531752729195,35.1987141296007],[-82.411301,35.202483],[-82.455609,35.177425],[-82.53256,35.155617],[-82.5777151484413,35.1464753478475],[-82.68604,35.124545],[-82.746431,35.079131],[-82.7617976610408,35.0818284636457],[-82.783283,35.0856],[-82.897499,35.056021],[-82.897559231248,35.0560052045865],[-83.0084105925124,35.0269348608162],[-83.108399912205,35.0007130457328],[-83.108606,35.000659],[-83.322768,34.995874],[-83.4828732042907,34.9908739612868],[-83.5491807535047,34.988803195914],[-83.619985,34.986592],[-83.936427344252,34.9874843833797],[-83.936646,34.987485],[-84.0053367334383,34.9876495840123],[-84.1294469626359,34.9879469539553],[-84.321869,34.988408],[-84.2865983787409,35.2057582184959],[-84.28322,35.226577]]]}},{"type":"Feature","properties":{"state":"AR","name":"Arkansas","statefp":"05"},"geometry":{"type":"Polygon","coordinates":[[[-94.361203,36.4996],[-94.0770881248555,36.49897595691],[-93.95919,36.498717],[-93.8666892118508,36.4988662760355],[-93.700171,36.499135],[-93.5842625342512,36.4989016403491],[-93.426989,36.498585],[-93.3153233371857,36.4983127171069],[-93.2930675065906,36.4982584490195],[-93.125969,36.497851],[-92.8540081073941,36.4980234071379],[-92.838876,36.498033],[-92.7723338933721,36.4980831540794],[-92.564238,36.49824],[-92.5291361751611,36.498165682126],[-92.350277,36.497787],[-92.150306261007,36.4981403333038],[-92.120391964917,36.4981931896223],[-91.985802,36.498431],[-91.6723336435146,36.4992566570116],[-91.64259,36.499335],[-91.450023110521,36.4975403827277],[-91.4068712895641,36.4971382315405],[-91.404915,36.49712],[-91.1265376607175,36.4977977039745],[-91.017974,36.498062],[-90.784029207405,36.4984625681699],[-90.765672,36.498494],[-90.5761790655673,36.498405927798],[-90.494575,36.498368],[-90.2207490539154,36.4959375921945],[-90.153871,36.495344],[-90.141399,36.459874],[-90.131038,36.415069],[-90.066136,36.386272],[-90.063526,36.356911],[-90.06398,36.303038],[-90.114922,36.265595],[-90.155928,36.214074],[-90.1891019136628,36.1989984552544],[-90.220425,36.184764],[-90.235585,36.139474],[-90.294492,36.112949],[-90.339343,36.047112],[-90.368718,35.995812],[-90.2890769140827,35.9965128689775],[-90.103842,35.998143],[-89.9593746319162,35.9990141141563],[-89.901183,35.999365],[-89.733095,36.000608],[-89.686924,35.947716],[-89.652279,35.921462],[-89.6491186188564,35.9047155762998],[-89.64727,35.89492],[-89.722634,35.873718],[-89.729517,35.847632],[-89.723426,35.809382],[-89.797053,35.782648],[-89.863874,35.747592],[-89.915491,35.754917],[-89.956589,35.695486],[-89.898916,35.650904],[-89.876548,35.626653],[-89.9325,35.607865],[-89.944754,35.560308],[-89.958498,35.541703],[-90.037615,35.550329],[-90.045805,35.496533],[-90.022064,35.457375],[-90.045306,35.415435],[-90.070549,35.423291],[-90.112504,35.410153],[-90.087903,35.36327],[-90.121864,35.304535],[-90.166594,35.274588],[-90.097947,35.249983],[-90.093285,35.203282],[-90.099777,35.164474],[-90.09061,35.118287],[-90.160058,35.12883],[-90.181387,35.091401],[-90.197146,35.050731],[-90.265296,35.040293],[-90.300697,35.028793],[-90.309297,34.995694],[-90.244476,34.937596],[-90.250095,34.90732],[-90.3114467159881,34.872838517743],[-90.313476,34.871698],[-90.401633,34.835305],[-90.4079823819208,34.835265981566],[-90.463795,34.834923],[-90.473527,34.788835],[-90.505494,34.764568],[-90.546053,34.702076],[-90.550158,34.663445],[-90.5748549582232,34.6316539794501],[-90.587224,34.615732],[-90.549244,34.568101],[-90.569347,34.524867],[-90.5694607451505,34.5243442788972],[-90.583717,34.458829],[-90.575336,34.415152],[-90.641398,34.383869],[-90.660404,34.33576],[-90.729131,34.364206],[-90.765174,34.342818],[-90.752681,34.289266],[-90.812829,34.279438],[-90.839981,34.236114],[-90.89456,34.22438],[-90.882701,34.184364],[-90.894385,34.160953],[-90.938064,34.148754],[-90.9440807601938,34.1200652947774],[-90.9448449522363,34.1164215264479],[-90.946323,34.109374],[-90.90113,34.094667],[-90.874541,34.072041],[-90.89242,34.02686],[-90.942662,34.01805],[-90.979945,34.000106],[-91.004981,33.977011],[-91.048367,33.985078],[-91.088696,33.961334],[-91.035961,33.943758],[-91.026382,33.90798],[-91.061247,33.877505],[-91.052819,33.824181],[-91.025173,33.805953],[-91.026782,33.763642],[-91.08551,33.77641],[-91.111494,33.774568],[-91.143287,33.747141],[-91.075389,33.714403],[-91.10098,33.660551],[-91.178311,33.651109],[-91.130902,33.610919],[-91.188942,33.576225],[-91.206415960587,33.5456284081563],[-91.215671,33.529423],[-91.2156615141091,33.5294098627481],[-91.189375,33.493005],[-91.171799,33.462342],[-91.147663,33.427172],[-91.113764,33.393124],[-91.142219,33.348989],[-91.125539,33.280255],[-91.086137,33.273652],[-91.068708,33.232936],[-91.084366,33.180856],[-91.104317,33.131598],[-91.153015,33.135093],[-91.180836,33.098364],[-91.120379,33.05453],[-91.1596060796211,33.0112423416025],[-91.166073,33.004106],[-91.2645640502205,33.0047388242705],[-91.4359307415474,33.0058398887954],[-91.4603762339211,33.0059969558674],[-91.489176,33.006182],[-91.875128,33.007728],[-92.0689280885167,33.0084815806166],[-92.0690147239268,33.0084819174935],[-92.222825,33.00908],[-92.501383,33.01216],[-92.723553,33.014328],[-92.7247431731793,33.0143417676748],[-92.971137,33.017192],[-92.9887760560898,33.0172511697504],[-93.197402,33.017951],[-93.2386468140122,33.0180159427056],[-93.377134,33.018234],[-93.4905581209888,33.0186347572102],[-93.5209925078522,33.0187422898925],[-93.723273,33.019457],[-93.8071252110518,33.0193945746385],[-93.8145980610549,33.0193890113342],[-94.042964,33.019219],[-94.042719,33.160291],[-94.0429458450603,33.2712410493864],[-94.043067,33.330498],[-94.042988,33.435824],[-94.043428,33.551425],[-94.07267,33.572234],[-94.143024,33.577725],[-94.183395,33.592212],[-94.213605,33.570622],[-94.238868,33.576722],[-94.303742,33.564486],[-94.338422,33.567082],[-94.354165,33.556452],[-94.388052,33.565511],[-94.419057,33.577217],[-94.485875,33.637867],[-94.481842,33.789008],[-94.4772691832212,33.9408298614626],[-94.474895,34.019655],[-94.470143947319,34.1901776556377],[-94.465425,34.359548],[-94.4611686861559,34.5074566515725],[-94.4575,34.634945],[-94.4543955288439,34.7289436942281],[-94.449058,34.890556],[-94.4475060874703,34.9340729057232],[-94.4363568693981,35.2467061646578],[-94.435316,35.275893],[-94.431515,35.369591],[-94.4340725641195,35.387474395379],[-94.4348090628047,35.3926242553894],[-94.449696,35.496719],[-94.4731193906467,35.6385471525294],[-94.4930532906959,35.7592465106763],[-94.494549,35.768303],[-94.532071,35.987852],[-94.5518886566514,36.1021239714216],[-94.5622679285528,36.1619726146264],[-94.5862,36.299969],[-94.617919,36.499414],[-94.361203,36.4996]]]}},{"type":"Feature","properties":{"state":"SC","name":"South Carolina","statefp":"45"},"geometry":{"type":"Polygon","coordinates":[[[-83.320062,34.759616],[-83.323866,34.789712],[-83.284812,34.823043],[-83.252582,34.853483],[-83.201183,34.884653],[-83.140621,34.924915],[-83.124378,34.95524],[-83.108606,35.000659],[-83.108399912205,35.0007130457328],[-83.0084105925124,35.0269348608162],[-82.897559231248,35.0560052045865],[-82.897499,35.056021],[-82.783283,35.0856],[-82.7617976610408,35.0818284636457],[-82.746431,35.079131],[-82.68604,35.124545],[-82.5777151484413,35.1464753478475],[-82.53256,35.155617],[-82.455609,35.177425],[-82.411301,35.202483],[-82.3531752729195,35.1987141296007],[-82.3133570690064,35.196132318454],[-82.295354,35.194965],[-82.215996376597,35.1932531051427],[-82.1058516370446,35.1908770736399],[-82.039651,35.189449],[-81.9693584012576,35.1869270884005],[-81.8744102050921,35.183520599502],[-81.7681344077739,35.1797077063839],[-81.494265,35.169882],[-81.3676041320777,35.1640921256134],[-81.3280909892918,35.1622859155574],[-81.04287,35.149248],[-81.0423024501386,35.1467686494682],[-81.036759,35.122552],[-81.058029,35.07319],[-81.041489,35.044703],[-80.93495,35.107409],[-80.9061786627212,35.0751154751148],[-80.8405485676148,35.0014509426323],[-80.782042,34.935782],[-80.796997,34.823874],[-80.5617085493824,34.8174824003365],[-80.561657,34.817481],[-80.3208325711298,34.813620821544],[-80.077223,34.809716],[-79.927398038772,34.807862590631],[-79.9246842531364,34.8078290197515],[-79.6929463837093,34.8049623069232],[-79.675299,34.804744],[-79.4617910310013,34.6300306785915],[-79.4502772890434,34.6206089970087],[-79.358317,34.545358],[-79.1083782887823,34.3311325283704],[-79.0712542010482,34.2993130268419],[-79.0712436122253,34.2993039510346],[-79.071169,34.29924],[-78.81171,34.081006],[-78.6508712805333,33.9450557205328],[-78.615932,33.915523],[-78.541087,33.851112],[-78.67226,33.817587],[-78.772737,33.768511],[-78.862931,33.705654],[-78.938076,33.639826],[-78.9951309899024,33.572664],[-79.028516,33.533365],[-79.084588,33.483669],[-79.135441,33.403867],[-79.162332,33.327246],[-79.180563,33.237955],[-79.172394,33.206577],[-79.215453,33.155569],[-79.2744945846428,33.1200562677204],[-79.291591,33.109773],[-79.329909,33.089986],[-79.339313,33.050336],[-79.359961,33.006672],[-79.423447,33.015085],[-79.483499,33.001265],[-79.522449,33.03535],[-79.580725,33.006447],[-79.606615,32.972248],[-79.569762,32.926692],[-79.601309,32.89815],[-79.695141,32.850398],[-79.726389,32.805996],[-79.818237,32.766352],[-79.868352,32.734849],[-79.884961,32.684402],[-79.968468,32.639732],[-80.000801,32.605892],[-80.077039,32.603319],[-80.148406,32.578479],[-80.190108,32.546841],[-80.246361,32.531114],[-80.2520535958345,32.5278724387921],[-80.338354,32.47873],[-80.413505,32.471174],[-80.46571,32.4953],[-80.4722931246951,32.4833489145801],[-80.484617,32.460976],[-80.457502,32.410264],[-80.434303,32.375193],[-80.455192,32.326458],[-80.539429,32.287024],[-80.596394,32.273549],[-80.644794,32.291497],[-80.714601,32.325656],[-80.766038,32.292608],[-80.726967,32.265706],[-80.669166,32.216783],[-80.721463,32.160427],[-80.812503,32.109746],[-80.858735,32.099581],[-80.8674276818916,32.07849],[-80.885517,32.0346],[-80.943226,32.057824],[-81.006745,32.101152],[-81.038265,32.084469],[-81.113334,32.113205],[-81.119361,32.177142],[-81.1475951704554,32.2271694465971],[-81.153531,32.237687],[-81.128034,32.276297],[-81.133032,32.334794],[-81.1734737944861,32.3849027808867],[-81.194931,32.411489],[-81.194829,32.465086],[-81.274927,32.544158],[-81.2842383817656,32.547110946285],[-81.328753,32.561228],[-81.3869019026942,32.5989648538998],[-81.397106,32.605587],[-81.393818,32.653491],[-81.41267,32.739083],[-81.4131167951736,32.7442613279615],[-81.42062,32.831223],[-81.464069,32.897814],[-81.499566,32.943722],[-81.50203,33.015113],[-81.5439662243139,33.0443999541444],[-81.601655,33.084688],[-81.6159557107891,33.089338539364],[-81.658433,33.103152],[-81.755135,33.15155],[-81.7625059827958,33.1972658882973],[-81.763535,33.203648],[-81.846536,33.241746],[-81.8465005323579,33.2472520854299],[-81.846136,33.303843],[-81.932737,33.343541],[-81.920121,33.410753],[-81.926336,33.462937],[-81.990938,33.494235],[-82.016581923059,33.5290907977257],[-82.028238,33.544934],[-82.10624,33.595637],[-82.1146464844333,33.5979030721672],[-82.161908,33.610643],[-82.199747,33.657611],[-82.2159383647475,33.6877549753187],[-82.239098,33.730872],[-82.32448,33.820033],[-82.43115,33.867051],[-82.51295,33.936969],[-82.556835,33.945353],[-82.5629967985809,33.9565549105269],[-82.591855,34.009018],[-82.5950257926073,34.0135178092096],[-82.642797,34.081312],[-82.715373,34.148165],[-82.7359800166139,34.215462648637],[-82.744982,34.244861],[-82.7746287310121,34.2883668182547],[-82.780308,34.296701],[-82.82342,34.358872],[-82.841997,34.399766],[-82.873831,34.471508],[-82.925766,34.481802],[-82.9913881531823,34.4729806272358],[-82.99509,34.472483],[-83.048289,34.493254],[-83.0505729641024,34.4950536521691],[-83.096858,34.531524],[-83.1028738260357,34.5374309097654],[-83.154577,34.588198],[-83.221402,34.609947],[-83.27796,34.644853],[-83.33869,34.682002],[-83.3400391067846,34.6863277104121],[-83.3496085109133,34.7170105826273],[-83.353238,34.728648],[-83.320062,34.759616]]]}},{"type":"Feature","properties":{"state":"KY","name":"Kentucky","statefp":"21"},"geometry":{"type":"Polygon","coordinates":[[[-89.479346,36.566253],[-89.407906,36.562345],[-89.378694,36.622292],[-89.327319777009,36.6239462887705],[-89.324658,36.624032],[-89.278935,36.577699],[-89.227319,36.569375],[-89.199136,36.625649],[-89.1756497723469,36.6513192625535],[-89.165488,36.662426],[-89.202511,36.716618],[-89.15699,36.755968],[-89.1559849090704,36.7862926633714],[-89.155891,36.789126],[-89.147674,36.847148],[-89.120472,36.891896],[-89.1031354483266,36.9447609003223],[-89.098843,36.95785],[-89.132915,36.982057],[-89.128899,37.017908],[-89.1666202120197,37.0721103437999],[-89.168087,37.074218],[-89.099047,37.140967],[-89.058036,37.188767],[-89.000968,37.224401],[-88.9335100599741,37.2275116098343],[-88.931745,37.227593],[-88.9278935494308,37.226353966835],[-88.835051,37.196486],[-88.753068,37.154701],[-88.693983,37.141155],[-88.61144,37.112745],[-88.5610581316174,37.0840080816083],[-88.531576,37.067192],[-88.4904810043425,37.0679561064856],[-88.48380327698,37.0680802698954],[-88.476127,37.068223],[-88.444605,37.098601],[-88.424776,37.149901],[-88.471753,37.220155],[-88.514661,37.290948],[-88.486947,37.339596],[-88.465861,37.400547],[-88.418594,37.421987],[-88.4161335687515,37.4212865145119],[-88.358476490182,37.4048715275665],[-88.358436,37.40486],[-88.281667,37.452596],[-88.157061,37.466937],[-88.062294,37.487837],[-88.0662484288003,37.5041305345896],[-88.072242,37.528826],[-88.131622,37.572968],[-88.1324310565063,37.5752826298727],[-88.160062,37.654332],[-88.132341,37.697142],[-88.059588,37.742608],[-88.02803,37.799224],[-87.970262,37.781856],[-87.935861,37.789703],[-87.903804,37.817762],[-87.938128,37.870651],[-87.9253933817098,37.8995914771373],[-87.921744,37.907885],[-87.87254,37.920999],[-87.808013,37.875191],[-87.723635,37.892058],[-87.7131573360969,37.8830423995257],[-87.681633,37.855917],[-87.625851,37.851919],[-87.608479,37.898794],[-87.551277,37.925418],[-87.486347,37.920218],[-87.4487002885408,37.9338545298067],[-87.418585,37.944763],[-87.331765,37.908253],[-87.304057452442,37.8934325491223],[-87.270387407739,37.87542282659],[-87.25525,37.867326],[-87.180063,37.841375],[-87.137502,37.807264],[-87.105614,37.767631],[-87.057836,37.827457],[-87.043049,37.875049],[-87.010315,37.919668],[-86.9777414251102,37.9256992083727],[-86.927747,37.934956],[-86.875874,37.97077],[-86.8135795707459,37.9960671327985],[-86.810913,37.99715],[-86.779993,37.956522],[-86.722247,37.892648],[-86.658374,37.869376],[-86.6467093891411,37.8649113991803],[-86.615215,37.852857],[-86.599848,37.906754],[-86.509368,37.902887],[-86.525174,37.968228],[-86.52365608351047,38.0],[-86.08131509722942,38.0],[-86.033386,37.970382],[-85.9973516597543,37.9912256022991],[-85.98218251443728,38.0],[-82.48764909479839,38.0],[-82.464987,37.976859],[-82.479420123223,37.9385625246981],[-82.487556,37.916975],[-82.41869,37.872375],[-82.3984648162589,37.8430541504629],[-82.369973,37.801749],[-82.327356,37.762233],[-82.3206749571778,37.7459658434594],[-82.296118,37.686174],[-82.226111,37.653092],[-82.141555,37.595166],[-82.064418,37.544516],[-81.968297,37.537798],[-82.201745,37.375108],[-82.309415,37.300066],[-82.3143704529296,37.2963062518554],[-82.355343,37.26522],[-82.449164,37.243908],[-82.5536395449037,37.2014503744627],[-82.558178,37.199606],[-82.565275702797,37.1959011068831],[-82.726294,37.111852],[-82.722254,37.057948],[-82.750715,37.024107],[-82.815748,37.007196],[-82.869183,36.974182],[-82.865192,36.920923],[-82.8837542129764,36.8971301366542],[-82.895445,36.882145],[-83.012587,36.847289],[-83.07559,36.850589],[-83.114693,36.796088],[-83.136395,36.743088],[-83.236399,36.726887],[-83.386099,36.686589],[-83.436508,36.666185],[-83.4609546474638,36.6661310362733],[-83.527112,36.665985],[-83.614513,36.633983],[-83.675413,36.600814],[-83.690714,36.582581],[-83.894421,36.586481],[-83.9307607839439,36.5876942581124],[-83.9876109506828,36.5895922860725],[-83.987842,36.5896],[-84.2271939619983,36.5921795123551],[-84.227332,36.592181],[-84.2613212015047,36.592741697267],[-84.499938,36.596678],[-84.7784558643505,36.6032105122159],[-84.785341,36.603372],[-84.7853999785503,36.6033754199356],[-84.943948,36.612569],[-84.9748684358374,36.6145833593172],[-85.096128,36.622483],[-85.2762879474994,36.6261575408034],[-85.290627,36.62645],[-85.2958124857275,36.6261495593675],[-85.4364042728859,36.618003845027],[-85.488353,36.614994],[-85.731862,36.620429],[-85.7885565436139,36.6217118590347],[-85.873857,36.623642],[-85.975713174144,36.6286377186817],[-86.081944,36.633848],[-86.205565269856,36.6392468703288],[-86.4114961989664,36.6482404228482],[-86.507771,36.652445],[-86.551292,36.637985],[-86.5620676518653,36.6407466739073],[-86.606394,36.652107],[-86.7632909641085,36.6487206745018],[-86.813037,36.647647],[-87.0608263443929,36.6447708848516],[-87.1150035566884,36.6441420446512],[-87.3359790500808,36.6415771604931],[-87.347796,36.64144],[-87.64115,36.638036],[-87.6941859078643,36.6368382439437],[-87.853204,36.633247],[-87.849567,36.663701],[-88.011792,36.677025],[-88.070532,36.678118],[-88.055738,36.630475],[-88.033802,36.551733],[-88.050466,36.500053],[-88.0533508007759,36.4999962506816],[-88.127378,36.49854],[-88.4890767387132,36.5012837190757],[-88.51192,36.501457],[-88.5163580599794,36.5014641981633],[-88.8167641573481,36.5019514318132],[-88.8271780363405,36.5019683222569],[-88.8345890228743,36.5019803422593],[-88.964471,36.502191],[-89.211409,36.50563],[-89.3451943195388,36.5013432086369],[-89.417293,36.499033],[-89.539232,36.497934],[-89.571481,36.538087],[-89.544434,36.57451],[-89.479346,36.566253]]]}},{"type":"Feature","properties":{"state":"AL","name":"Alabama","statefp":"01"},"geometry":{"type":"Polygon","coordinates":[[[-88.46866,31.933173],[-88.4311453634628,32.2276362346889],[-88.428278,32.250143],[-88.4213122213943,32.3086791230113],[-88.3892485641243,32.5781223959586],[-88.373338,32.711825],[-88.3474902478349,32.9290347868805],[-88.3400849921393,32.991264337875],[-88.317135,33.184123],[-88.3044428135104,33.28832],[-88.2745163342439,33.534002598714],[-88.254445,33.698779],[-88.2483874739095,33.7449075948817],[-88.207229,34.058333],[-88.2035834952194,34.0865277314681],[-88.1732617345949,34.3210395343343],[-88.1549021840087,34.46303430044],[-88.1395594412474,34.5816967458839],[-88.134263,34.62266],[-88.097888,34.892202],[-88.154617,34.922392],[-88.200064,34.995634],[-88.202959,35.008028],[-88.000032,35.005939],[-87.9849160436989,35.0059101243258],[-87.851886,35.005656],[-87.625025,35.003732],[-87.6060978676533,35.0035195262043],[-87.424908998267,35.0014855209409],[-87.2240536418757,34.9992307419721],[-87.216683,34.999148],[-87.2107585799823,34.9990491809997],[-86.8362863159495,34.992803004217],[-86.783648,34.991925],[-86.783628017169,34.991924921992],[-86.467798,34.990692],[-86.3187607654651,34.9910785804428],[-86.311274,34.991098],[-85.8639461118069,34.9870308587481],[-85.605165,34.984678],[-85.595165,34.924171],[-85.5828123337853,34.8604354744776],[-85.561424,34.750079],[-85.5344052578154,34.6237903384358],[-85.526894818161,34.5886856927335],[-85.5130442292733,34.5239464713237],[-85.502471,34.474526],[-85.4631408247758,34.2861909885055],[-85.429499,34.125095],[-85.4210731752288,34.0808126526072],[-85.398871,33.964128],[-85.3866705737728,33.9017014940033],[-85.360532,33.767957],[-85.3381162999059,33.6531143916014],[-85.314048,33.529805],[-85.3049438332249,33.4827563368455],[-85.2943468643453,33.4279931463646],[-85.2365953712528,33.1295440282507],[-85.232441,33.108075],[-85.1861174017892,32.8701382699716],[-85.1844,32.861317],[-85.160963,32.826672],[-85.1245332227506,32.7516296067514],[-85.11425,32.730447],[-85.088533,32.657958],[-85.0760723726048,32.6080674751571],[-85.069848,32.583146],[-85.0071,32.523868],[-85.0011308391237,32.5101547883978],[-84.9997867563101,32.5070669687837],[-84.971831,32.442843],[-84.9811502941337,32.3790400766818],[-84.983466,32.363186],[-85.008096,32.336677],[-84.955704,32.30591],[-84.891841,32.263398],[-84.9199421479259,32.2308482009333],[-84.930127,32.219051],[-84.997765,32.185445],[-85.058749,32.136018],[-85.047063,32.087389],[-85.0514111279128,32.062256083622],[-85.0635905429847,31.991857],[-85.067829,31.967358],[-85.114031,31.89336],[-85.141831,31.839261],[-85.1291593155832,31.7802782680766],[-85.1254405773425,31.7629687034183],[-85.11893,31.732664],[-85.12553,31.694965],[-85.058169,31.620227],[-85.05796,31.57084],[-85.041881,31.544684],[-85.0516814295062,31.5195403291417],[-85.071621,31.468384],[-85.066005,31.431363],[-85.092487,31.362881],[-85.087929,31.321648],[-85.0888299635305,31.3086477554966],[-85.089774,31.295026],[-85.108192,31.258591],[-85.107516,31.186451],[-85.035615,31.108192],[-85.0211075623628,31.0754638723064],[-85.011392,31.053546],[-85.002499,31.000682],[-85.031285,31.000647],[-85.145959,31.000693],[-85.333319,30.999555],[-85.4882982889391,30.9979646232873],[-85.4980015850895,30.9978650493614],[-85.749715,30.995282],[-85.893632,30.993455],[-86.0350381049506,30.9937496073023],[-86.1327206705317,30.9939531204189],[-86.1872480489813,30.9940667234622],[-86.364974,30.994437],[-86.3886446620004,30.9945282152752],[-86.563494,30.995202],[-86.6882409642461,30.9962018900015],[-86.7856919760059,30.9969829935168],[-86.831979,30.997354],[-86.927851,30.997678],[-87.162644,30.999026],[-87.163645308459,30.999021835748],[-87.312206,30.998404],[-87.425791,30.998058],[-87.519533,30.997552],[-87.5988289462621,30.9974221769053],[-87.598937,30.997422],[-87.592064,30.95146],[-87.634943,30.865857],[-87.542268,30.767481],[-87.523621,30.738285],[-87.442291,30.692661],[-87.400189,30.657201],[-87.401189,30.604383],[-87.43145,30.550252],[-87.444722,30.507484],[-87.414685,30.457289],[-87.366601,30.436643],[-87.431784,30.403193],[-87.452282,30.344097],[-87.518324,30.280435],[-87.656888,30.249709],[-87.818867,30.228314],[-87.893201,30.239237],[-87.806466,30.279798],[-87.796717,30.324198],[-87.865017,30.38345],[-87.914136,30.446144],[-87.933355,30.487357],[-87.901711,30.550879],[-87.914956,30.585893],[-87.93107,30.652694],[-88.008396,30.684956],[-88.0094372213328,30.6841777355192],[-88.061998,30.644891],[-88.064898,30.588292],[-88.081617,30.546317],[-88.103768,30.500903],[-88.105699,30.401865],[-88.136173,30.320729],[-88.195664,30.321242],[-88.257764,30.318933],[-88.311608,30.368908],[-88.364022,30.388006],[-88.395023,30.369425],[-88.403931,30.543359],[-88.41227,30.731771],[-88.4124674313592,30.7355974592153],[-88.4150475999783,30.7856042566701],[-88.4260209637871,30.9982813574303],[-88.432007,31.114298],[-88.44866,31.421277],[-88.4494460690171,31.4358368612776],[-88.459478,31.621652],[-88.4636253046849,31.6979423713502],[-88.468669,31.790722],[-88.4686624840513,31.8938557116156],[-88.46866,31.933173]]]}}]}
